{"type":"FeatureCollection","features":[{"type":"Feature","geometry":{"type":"Point","coordinates":[-79.6055,1.6008]},"properties":{"t":"2026-10-02T13:52:00Z","energia_fJ":21.0,"ec":false}},{"type":"Feature","geometry":{"type":"Point","coordinates":[-79.8909,0.8104]},"properties":{"t":"2026-10-02T13:53:40Z","energia_fJ":3.0,"ec":true}},{"type":"Feature","geometry":{"type":"Point","coordinates":[-79.8907,0.7947]},"properties":{"t":"2026-10-02T13:54:40Z","energia_fJ":8.0,"ec":true}},{"type":"Feature","geometry":{"type":"Point","coordinates":[-80.0259,0.2558]},"properties":{"t":"2026-10-02T13:56:20Z","energia_fJ":57.0,"ec":true}},{"type":"Feature","geometry":{"type":"Point","coordinates":[-79.6,1.6056]},"properties":{"t":"2026-10-02T13:56:20Z","energia_fJ":5.0,"ec":false}},{"type":"Feature","geometry":{"type":"Point","coordinates":[-80.0512,0.2813]},"properties":{"t":"2026-10-02T13:58:40Z","energia_fJ":42.0,"ec":false}},{"type":"Feature","geometry":{"type":"Point","coordinates":[-79.9039,0.779]},"properties":{"t":"2026-10-02T13:59:40Z","energia_fJ":158.0,"ec":true}},{"type":"Feature","geometry":{"type":"Point","coordinates":[-80.0478,0.2682]},"properties":{"t":"2026-10-02T14:00:20Z","energia_fJ":20.0,"ec":false}},{"type":"Feature","geometry":{"type":"Point","coordinates":[-79.7541,-0.6169]},"properties":{"t":"2026-10-02T14:01:00Z","energia_fJ":1180.0,"ec":true}},{"type":"Feature","geometry":{"type":"Point","coordinates":[-79.8854,0.8054]},"properties":{"t":"2026-10-02T14:02:00Z","energia_fJ":62.0,"ec":true}},{"type":"Feature","geometry":{"type":"Point","coordinates":[-80.1074,1.0998]},"properties":{"t":"2026-10-02T14:05:00Z","energia_fJ":23.0,"ec":false}},{"type":"Feature","geometry":{"type":"Point","coordinates":[-79.9039,0.8126]},"properties":{"t":"2026-10-02T14:05:20Z","energia_fJ":48.0,"ec":true}},{"type":"Feature","geometry":{"type":"Point","coordinates":[-79.7683,-0.587]},"properties":{"t":"2026-10-02T14:07:20Z","energia_fJ":542.0,"ec":true}},{"type":"Feature","geometry":{"type":"Point","coordinates":[-80.0158,0.2536]},"properties":{"t":"2026-10-02T14:08:00Z","energia_fJ":88.0,"ec":true}},{"type":"Feature","geometry":{"type":"Point","coordinates":[-79.9196,0.8095]},"properties":{"t":"2026-10-02T14:08:00Z","energia_fJ":7.0,"ec":true}},{"type":"Feature","geometry":{"type":"Point","coordinates":[-79.9642,0.801]},"properties":{"t":"2026-10-02T14:10:00Z","energia_fJ":41.0,"ec":true}},{"type":"Feature","geometry":{"type":"Point","coordinates":[-79.7495,-0.5895]},"properties":{"t":"2026-10-02T14:10:20Z","energia_fJ":57.0,"ec":true}},{"type":"Feature","geometry":{"type":"Point","coordinates":[-80.0372,0.2319]},"properties":{"t":"2026-10-02T14:11:00Z","energia_fJ":12.0,"ec":false}},{"type":"Feature","geometry":{"type":"Point","coordinates":[-79.9618,1.4052]},"properties":{"t":"2026-10-02T14:11:20Z","energia_fJ":13.0,"ec":false}},{"type":"Feature","geometry":{"type":"Point","coordinates":[-79.7544,-0.6083]},"properties":{"t":"2026-10-02T14:13:00Z","energia_fJ":203.0,"ec":true}},{"type":"Feature","geometry":{"type":"Point","coordinates":[-79.9405,0.8371]},"properties":{"t":"2026-10-02T14:13:40Z","energia_fJ":53.0,"ec":false}},{"type":"Feature","geometry":{"type":"Point","coordinates":[-79.7664,-0.5944]},"properties":{"t":"2026-10-02T14:15:00Z","energia_fJ":61.0,"ec":true}},{"type":"Feature","geometry":{"type":"Point","coordinates":[-80.0459,0.2456]},"properties":{"t":"2026-10-02T14:15:00Z","energia_fJ":106.0,"ec":false}},{"type":"Feature","geometry":{"type":"Point","coordinates":[-79.6772,1.5344]},"properties":{"t":"2026-10-02T14:16:00Z","energia_fJ":59.0,"ec":false}},{"type":"Feature","geometry":{"type":"Point","coordinates":[-79.7511,-0.5853]},"properties":{"t":"2026-10-02T14:16:40Z","energia_fJ":14.0,"ec":true}},{"type":"Feature","geometry":{"type":"Point","coordinates":[-79.6728,1.5519]},"properties":{"t":"2026-10-02T14:18:00Z","energia_fJ":5.0,"ec":false}},{"type":"Feature","geometry":{"type":"Point","coordinates":[-80.0454,0.2365]},"properties":{"t":"2026-10-02T14:18:00Z","energia_fJ":47.0,"ec":false}},{"type":"Feature","geometry":{"type":"Point","coordinates":[-79.9626,0.8349]},"properties":{"t":"2026-10-02T14:18:40Z","energia_fJ":81.0,"ec":false}},{"type":"Feature","geometry":{"type":"Point","coordinates":[-79.7513,-0.6542]},"properties":{"t":"2026-10-02T14:19:00Z","energia_fJ":171.0,"ec":true}},{"type":"Feature","geometry":{"type":"Point","coordinates":[-79.6904,-0.6641]},"properties":{"t":"2026-10-02T14:19:20Z","energia_fJ":41.0,"ec":true}},{"type":"Feature","geometry":{"type":"Point","coordinates":[-80.0293,0.2422]},"properties":{"t":"2026-10-02T14:20:20Z","energia_fJ":242.0,"ec":true}},{"type":"Feature","geometry":{"type":"Point","coordinates":[-79.6697,1.5337]},"properties":{"t":"2026-10-02T14:20:20Z","energia_fJ":137.0,"ec":false}},{"type":"Feature","geometry":{"type":"Point","coordinates":[-80.0392,0.2177]},"properties":{"t":"2026-10-02T14:21:40Z","energia_fJ":88.0,"ec":false}},{"type":"Feature","geometry":{"type":"Point","coordinates":[-76.1383,0.503]},"properties":{"t":"2026-10-02T14:21:40Z","energia_fJ":44.0,"ec":false}},{"type":"Feature","geometry":{"type":"Point","coordinates":[-79.7506,-0.5889]},"properties":{"t":"2026-10-02T14:22:00Z","energia_fJ":77.0,"ec":true}},{"type":"Feature","geometry":{"type":"Point","coordinates":[-79.6747,1.534]},"properties":{"t":"2026-10-02T14:22:00Z","energia_fJ":136.0,"ec":false}},{"type":"Feature","geometry":{"type":"Point","coordinates":[-80.0516,0.2249]},"properties":{"t":"2026-10-02T14:23:20Z","energia_fJ":74.0,"ec":false}},{"type":"Feature","geometry":{"type":"Point","coordinates":[-80.0274,0.2185]},"properties":{"t":"2026-10-02T14:24:40Z","energia_fJ":22.0,"ec":true}},{"type":"Feature","geometry":{"type":"Point","coordinates":[-79.9152,0.8848]},"properties":{"t":"2026-10-02T14:26:20Z","energia_fJ":83.0,"ec":false}},{"type":"Feature","geometry":{"type":"Point","coordinates":[-79.5565,-0.4413]},"properties":{"t":"2026-10-02T14:26:40Z","energia_fJ":163.0,"ec":true}},{"type":"Feature","geometry":{"type":"Point","coordinates":[-79.6987,1.6177]},"properties":{"t":"2026-10-02T14:27:00Z","energia_fJ":337.0,"ec":false}},{"type":"Feature","geometry":{"type":"Point","coordinates":[-80.016,0.2529]},"properties":{"t":"2026-10-02T14:27:00Z","energia_fJ":93.0,"ec":true}},{"type":"Feature","geometry":{"type":"Point","coordinates":[-79.7845,-0.6569]},"properties":{"t":"2026-10-02T14:27:40Z","energia_fJ":376.0,"ec":true}},{"type":"Feature","geometry":{"type":"Point","coordinates":[-80.0752,0.2635]},"properties":{"t":"2026-10-02T14:29:20Z","energia_fJ":13.0,"ec":false}},{"type":"Feature","geometry":{"type":"Point","coordinates":[-79.7458,1.5609]},"properties":{"t":"2026-10-02T14:31:20Z","energia_fJ":75.0,"ec":false}},{"type":"Feature","geometry":{"type":"Point","coordinates":[-79.7742,-0.5943]},"properties":{"t":"2026-10-02T14:31:20Z","energia_fJ":180.0,"ec":true}},{"type":"Feature","geometry":{"type":"Point","coordinates":[-79.9985,0.2662]},"properties":{"t":"2026-10-02T14:33:00Z","energia_fJ":47.0,"ec":true}},{"type":"Feature","geometry":{"type":"Point","coordinates":[-79.7478,-0.595]},"properties":{"t":"2026-10-02T14:34:00Z","energia_fJ":45.0,"ec":true}},{"type":"Feature","geometry":{"type":"Point","coordinates":[-79.5439,2.3512]},"properties":{"t":"2026-10-02T14:34:20Z","energia_fJ":339.0,"ec":false}},{"type":"Feature","geometry":{"type":"Point","coordinates":[-80.0562,0.2529]},"properties":{"t":"2026-10-02T14:35:40Z","energia_fJ":13.0,"ec":false}},{"type":"Feature","geometry":{"type":"Point","coordinates":[-79.7865,-0.6477]},"properties":{"t":"2026-10-02T14:36:20Z","energia_fJ":189.0,"ec":true}},{"type":"Feature","geometry":{"type":"Point","coordinates":[-79.7338,1.613]},"properties":{"t":"2026-10-02T14:36:20Z","energia_fJ":265.0,"ec":false}},{"type":"Feature","geometry":{"type":"Point","coordinates":[-79.8269,-0.4826]},"properties":{"t":"2026-10-02T14:37:00Z","energia_fJ":112.0,"ec":true}},{"type":"Feature","geometry":{"type":"Point","coordinates":[-80.0954,1.2053]},"properties":{"t":"2026-10-02T14:38:20Z","energia_fJ":178.0,"ec":false}},{"type":"Feature","geometry":{"type":"Point","coordinates":[-80.0202,1.2284]},"properties":{"t":"2026-10-02T14:39:40Z","energia_fJ":53.0,"ec":false}},{"type":"Feature","geometry":{"type":"Point","coordinates":[-79.9898,0.2927]},"properties":{"t":"2026-10-02T14:41:20Z","energia_fJ":136.0,"ec":true}},{"type":"Feature","geometry":{"type":"Point","coordinates":[-79.841,-0.481]},"properties":{"t":"2026-10-02T14:41:40Z","energia_fJ":122.0,"ec":true}},{"type":"Feature","geometry":{"type":"Point","coordinates":[-80.0692,1.2152]},"properties":{"t":"2026-10-02T14:42:00Z","energia_fJ":81.0,"ec":false}},{"type":"Feature","geometry":{"type":"Point","coordinates":[-80.0161,0.2699]},"properties":{"t":"2026-10-02T14:43:40Z","energia_fJ":108.0,"ec":true}},{"type":"Feature","geometry":{"type":"Point","coordinates":[-80.036,1.2124]},"properties":{"t":"2026-10-02T14:44:00Z","energia_fJ":8.0,"ec":false}},{"type":"Feature","geometry":{"type":"Point","coordinates":[-80.0377,1.1916]},"properties":{"t":"2026-10-02T14:45:20Z","energia_fJ":78.0,"ec":false}},{"type":"Feature","geometry":{"type":"Point","coordinates":[-80.035,1.2449]},"properties":{"t":"2026-10-02T14:47:40Z","energia_fJ":4.0,"ec":false}}]}