{"type":"FeatureCollection","nivel":"provincias","features":[{"type":"Feature","properties":{"codigo":"01","nombre":"Azuay","region":"Interandina"},"geometry":{"type":"Polygon","coordinates":[[[-79.39749,-2.5169],[-79.36193,-2.5442],[-79.3623,-2.57497],[-79.30389,-2.57231],[-79.30375,-2.61942],[-79.23264,-2.6934],[-79.20633,-2.69266],[-79.21475,-2.723],[-79.17682,-2.74501],[-79.14533,-2.7312],[-79.14363,-2.71414],[-79.12004,-2.71677],[-79.09394,-2.69692],[-79.08026,-2.64812],[-79.03451,-2.64617],[-79.0102,-2.71371],[-78.98546,-2.71963],[-78.99521,-2.7485],[-78.97393,-2.74851],[-78.94852,-2.7756],[-78.94451,-2.82892],[-78.88049,-2.84128],[-78.87496,-2.81921],[-78.81541,-2.82227],[-78.8154,-2.77855],[-78.79502,-2.77423],[-78.80086,-2.7127],[-78.77448,-2.67528],[-78.74804,-2.67419],[-78.73251,-2.69131],[-78.68668,-2.66942],[-78.66684,-2.67733],[-78.65835,-2.65467],[-78.61678,-2.62746],[-78.62217,-2.59385],[-78.56584,-2.55443],[-78.56308,-2.60675],[-78.53602,-2.62709],[-78.49722,-2.57173],[-78.44381,-2.59411],[-78.42482,-2.6191],[-78.445,-2.65161],[-78.5795,-2.70926],[-78.5921,-2.76158],[-78.61464,-2.78673],[-78.57563,-2.83058],[-78.57555,-2.85105],[-78.63162,-2.91355],[-78.63142,-2.97057],[-78.65882,-2.98989],[-78.67083,-3.06303],[-78.7053,-3.13678],[-78.74287,-3.1407],[-78.83504,-3.2457],[-78.85677,-3.22965],[-78.91215,-3.27315],[-78.9344,-3.27311],[-78.93433,-3.29614],[-78.95393,-3.29985],[-78.94297,-3.34342],[-78.98976,-3.35346],[-79.05101,-3.39966],[-79.06885,-3.43808],[-79.04351,-3.47818],[-79.06807,-3.51276],[-79.04487,-3.57673],[-79.06839,-3.58984],[-79.05789,-3.61007],[-79.08128,-3.6231],[-79.10326,-3.62697],[-79.13344,-3.59841],[-79.13618,-3.52764],[-79.18124,-3.44078],[-79.257,-3.47594],[-79.28916,-3.46695],[-79.30846,-3.3999],[-79.30081,-3.36615],[-79.33402,-3.33993],[-79.42891,-3.34402],[-79.51489,-3.30744],[-79.61043,-3.32938],[-79.6689,-3.32171],[-79.64423,-3.30231],[-79.62774,-3.23215],[-79.60148,-3.2152],[-79.59981,-3.17629],[-79.61972,-3.13665],[-79.73077,-3.09764],[-79.7633,-3.06686],[-79.73405,-3.00999],[-79.71229,-3.01534],[-79.72587,-2.97921],[-79.66995,-2.97151],[-79.64525,-2.98948],[-79.64585,-2.9561],[-79.58575,-2.9081],[-79.62015,-2.89213],[-79.55077,-2.88954],[-79.55166,-2.8773],[-79.5917,-2.8766],[-79.60139,-2.85775],[-79.67032,-2.82485],[-79.63014,-2.82362],[-79.50294,-2.76774],[-79.48697,-2.67785],[-79.46004,-2.65739],[-79.4731,-2.60757],[-79.425,-2.60678],[-79.42829,-2.51804],[-79.39749,-2.5169]]]}},{"type":"Feature","properties":{"codigo":"02","nombre":"Bolívar","region":"Interandina"},"geometry":{"type":"Polygon","coordinates":[[[-79.10545,-1.15119],[-78.988,-1.21973],[-78.86221,-1.19141],[-78.89405,-1.22438],[-78.88639,-1.26806],[-78.9389,-1.35996],[-78.90976,-1.43112],[-78.85256,-1.4709],[-78.87779,-1.4914],[-78.86769,-1.51282],[-78.89769,-1.60102],[-78.88767,-1.62956],[-78.85104,-1.63192],[-78.86334,-1.71865],[-78.87992,-1.7407],[-78.90597,-1.73259],[-78.93249,-1.75714],[-78.9834,-1.75493],[-79.0126,-1.77477],[-79.02288,-1.85671],[-79.00804,-1.94443],[-79.03778,-2.06042],[-79.02303,-2.07562],[-79.02617,-2.10192],[-79.05203,-2.14983],[-79.12547,-2.20304],[-79.13215,-2.17474],[-79.10533,-2.14371],[-79.12107,-2.14103],[-79.11645,-2.12537],[-79.15844,-2.12036],[-79.17585,-2.14592],[-79.22375,-2.12192],[-79.23156,-2.10817],[-79.20544,-2.10849],[-79.22194,-2.08431],[-79.18805,-2.07694],[-79.22662,-2.07656],[-79.26646,-2.02805],[-79.27118,-2.00204],[-79.24016,-1.99117],[-79.25603,-1.97824],[-79.25603,-1.94104],[-79.24621,-1.85797],[-79.23011,-1.84473],[-79.25201,-1.81477],[-79.23885,-1.80482],[-79.24898,-1.78746],[-79.23068,-1.75848],[-79.24284,-1.75325],[-79.23483,-1.73274],[-79.24951,-1.72361],[-79.26957,-1.69842],[-79.27325,-1.66881],[-79.29133,-1.66946],[-79.28855,-1.65133],[-79.31954,-1.65971],[-79.31994,-1.64764],[-79.35565,-1.63774],[-79.31675,-1.62758],[-79.2987,-1.59942],[-79.27862,-1.61048],[-79.24811,-1.56106],[-79.24521,-1.5436],[-79.32183,-1.51272],[-79.33128,-1.46115],[-79.34715,-1.47172],[-79.36131,-1.45182],[-79.31683,-1.43768],[-79.33647,-1.43649],[-79.32781,-1.39689],[-79.28887,-1.39363],[-79.29701,-1.3556],[-79.27845,-1.35487],[-79.26649,-1.33139],[-79.31646,-1.32575],[-79.33718,-1.29293],[-79.36942,-1.32829],[-79.3926,-1.32222],[-79.34915,-1.27218],[-79.33459,-1.22646],[-79.30772,-1.20738],[-79.26061,-1.2077],[-79.22049,-1.17476],[-79.10545,-1.15119]]]}},{"type":"Feature","properties":{"codigo":"03","nombre":"Cañar","region":"Interandina"},"geometry":{"type":"Polygon","coordinates":[[[-79.13678,-2.21249],[-79.12971,-2.24324],[-79.10027,-2.25466],[-79.02683,-2.36317],[-78.91246,-2.41961],[-78.8847,-2.39289],[-78.84223,-2.39868],[-78.82876,-2.38034],[-78.79878,-2.3833],[-78.76,-2.33115],[-78.72349,-2.31491],[-78.71213,-2.33452],[-78.68259,-2.33823],[-78.71312,-2.40811],[-78.73777,-2.42133],[-78.69716,-2.44952],[-78.66793,-2.45162],[-78.66806,-2.437],[-78.64869,-2.43359],[-78.6238,-2.4556],[-78.5458,-2.33552],[-78.50054,-2.38142],[-78.48532,-2.37254],[-78.4816,-2.41414],[-78.46236,-2.42104],[-78.48514,-2.4375],[-78.50459,-2.52993],[-78.54534,-2.58625],[-78.53315,-2.62698],[-78.56308,-2.60675],[-78.56584,-2.55443],[-78.62217,-2.59385],[-78.61678,-2.62746],[-78.65835,-2.65467],[-78.66684,-2.67733],[-78.68668,-2.66942],[-78.73251,-2.69131],[-78.77081,-2.67242],[-78.80086,-2.7127],[-78.79502,-2.77423],[-78.8154,-2.77855],[-78.81541,-2.82227],[-78.87496,-2.81921],[-78.88049,-2.84128],[-78.94451,-2.82892],[-78.94852,-2.7756],[-78.97393,-2.74851],[-78.99521,-2.7485],[-78.98546,-2.71963],[-79.0102,-2.71371],[-79.03451,-2.64617],[-79.08026,-2.64812],[-79.09394,-2.69692],[-79.12004,-2.71677],[-79.14363,-2.71414],[-79.14533,-2.7312],[-79.17672,-2.74503],[-79.21475,-2.723],[-79.20633,-2.69266],[-79.23264,-2.6934],[-79.30375,-2.61942],[-79.30418,-2.57202],[-79.36468,-2.57248],[-79.36193,-2.5442],[-79.37706,-2.54268],[-79.39514,-2.49709],[-79.46172,-2.50074],[-79.50893,-2.53965],[-79.51594,-2.52694],[-79.48848,-2.51095],[-79.52234,-2.50535],[-79.52419,-2.48785],[-79.42525,-2.43062],[-79.44812,-2.42007],[-79.41868,-2.37833],[-79.43363,-2.37333],[-79.41602,-2.33589],[-79.39334,-2.35875],[-79.33597,-2.37153],[-79.30604,-2.40116],[-79.26373,-2.38949],[-79.2524,-2.35283],[-79.2159,-2.35382],[-79.19009,-2.32875],[-79.2088,-2.31291],[-79.17537,-2.3038],[-79.13678,-2.21249]]]}},{"type":"Feature","properties":{"codigo":"04","nombre":"Carchi","region":"Interandina"},"geometry":{"type":"Polygon","coordinates":[[[-78.50633,1.1965],[-78.46299,1.17601],[-78.43213,1.18937],[-78.43858,1.15833],[-78.42189,1.13818],[-78.418,1.16009],[-78.3953,1.15229],[-78.37471,1.17441],[-78.31115,1.19088],[-78.28253,1.11149],[-78.25091,1.099],[-78.2525,1.07891],[-78.2776,1.07217],[-78.28188,1.0559],[-78.20221,0.99709],[-78.19909,0.94704],[-78.15398,0.92401],[-78.11212,0.93224],[-78.08915,0.89707],[-77.99,0.85699],[-77.96611,0.82436],[-77.8426,0.8023],[-77.80367,0.83121],[-77.7087,0.84837],[-77.66384,0.81344],[-77.67689,0.7922],[-77.66162,0.79],[-77.69747,0.74074],[-77.56354,0.65074],[-77.53452,0.65286],[-77.53137,0.64865],[-77.56619,0.6345],[-77.68595,0.64116],[-77.68795,0.61795],[-77.65586,0.60311],[-77.80713,0.42714],[-77.81336,0.40361],[-77.79552,0.38066],[-77.81575,0.34915],[-77.83476,0.34439],[-77.86473,0.38114],[-77.924,0.40165],[-78.0111,0.47356],[-78.08979,0.47877],[-78.12959,0.53032],[-78.13363,0.61507],[-78.18721,0.66921],[-78.20425,0.71802],[-78.27157,0.78457],[-78.30279,0.79235],[-78.3308,0.82193],[-78.38674,0.82504],[-78.43573,0.87332],[-78.496,0.89154],[-78.54679,0.94152],[-78.53633,0.98057],[-78.5474,1.03164],[-78.52225,1.06862],[-78.4999,1.075],[-78.51284,1.17133],[-78.49577,1.18465],[-78.50633,1.1965]]]}},{"type":"Feature","properties":{"codigo":"05","nombre":"Cotopaxi","region":"Interandina"},"geometry":{"type":"Polygon","coordinates":[[[-78.94052,-0.33179],[-78.91833,-0.34032],[-78.89309,-0.41279],[-78.86156,-0.43376],[-78.8323,-0.5247],[-78.73342,-0.55966],[-78.73913,-0.62196],[-78.71586,-0.66306],[-78.64812,-0.64281],[-78.61155,-0.59749],[-78.57941,-0.61787],[-78.55966,-0.61275],[-78.55136,-0.63383],[-78.53782,-0.6197],[-78.48784,-0.6368],[-78.47356,-0.61321],[-78.45082,-0.62076],[-78.4299,-0.6009],[-78.37603,-0.63878],[-78.36352,-0.66179],[-78.39637,-0.67635],[-78.41122,-0.71943],[-78.39292,-0.74742],[-78.38995,-0.81992],[-78.40305,-0.87098],[-78.42765,-0.87886],[-78.40743,-0.91382],[-78.42975,-0.94489],[-78.39559,-0.96299],[-78.39396,-0.99084],[-78.46588,-1.08805],[-78.50212,-1.09418],[-78.5234,-1.05929],[-78.55926,-1.05886],[-78.57653,-1.07392],[-78.56247,-1.08411],[-78.56771,-1.11566],[-78.61346,-1.11012],[-78.66673,-1.15505],[-78.76082,-1.13545],[-78.84592,-1.18305],[-78.85929,-1.17358],[-78.89166,-1.20299],[-78.98599,-1.21999],[-79.02729,-1.20803],[-79.1068,-1.14989],[-79.22049,-1.17476],[-79.26061,-1.2077],[-79.2888,-1.20557],[-79.28674,-1.17896],[-79.31503,-1.16666],[-79.33994,-1.12585],[-79.29371,-1.00889],[-79.29329,-0.98761],[-79.32051,-0.99825],[-79.30629,-0.92876],[-79.28674,-0.89047],[-79.24361,-0.87876],[-79.22042,-0.8115],[-79.18683,-0.7992],[-79.18662,-0.76395],[-79.13924,-0.71277],[-79.12892,-0.64938],[-79.08349,-0.5668],[-79.11283,-0.54142],[-79.10097,-0.52504],[-79.07015,-0.52361],[-79.0314,-0.48333],[-79.01152,-0.41798],[-78.9733,-0.40859],[-78.96212,-0.36946],[-78.93292,-0.36089],[-78.94052,-0.33179]]]}},{"type":"Feature","properties":{"codigo":"06","nombre":"Chimborazo","region":"Interandina"},"geometry":{"type":"Polygon","coordinates":[[[-78.77257,-1.43013],[-78.68884,-1.49642],[-78.63642,-1.49316],[-78.63565,-1.5084],[-78.5631,-1.47565],[-78.53996,-1.47985],[-78.54205,-1.46012],[-78.51318,-1.47418],[-78.49891,-1.43395],[-78.42332,-1.48535],[-78.36447,-1.49696],[-78.35755,-1.51912],[-78.37649,-1.53603],[-78.36381,-1.64487],[-78.43222,-1.68541],[-78.46759,-1.75191],[-78.44587,-1.76212],[-78.39711,-1.85224],[-78.40365,-1.87868],[-78.45733,-1.92149],[-78.46359,-1.94986],[-78.48931,-1.95897],[-78.47894,-2.00332],[-78.4587,-1.98993],[-78.44189,-2.01164],[-78.45251,-2.06415],[-78.43329,-2.09004],[-78.45016,-2.11797],[-78.51345,-2.13308],[-78.48851,-2.22089],[-78.50508,-2.24649],[-78.53635,-2.24205],[-78.55021,-2.30511],[-78.5851,-2.31118],[-78.58156,-2.32869],[-78.5458,-2.33583],[-78.6238,-2.4556],[-78.64853,-2.43362],[-78.67373,-2.45245],[-78.73758,-2.42679],[-78.71312,-2.40811],[-78.68258,-2.34023],[-78.71221,-2.33446],[-78.7145,-2.31406],[-78.75424,-2.32611],[-78.79878,-2.3833],[-78.82876,-2.38034],[-78.84223,-2.39868],[-78.8847,-2.39289],[-78.91246,-2.41961],[-79.02683,-2.36317],[-79.10027,-2.25466],[-79.12971,-2.24324],[-79.13717,-2.21211],[-79.25457,-2.21766],[-79.24834,-2.19635],[-79.11078,-2.20137],[-79.03672,-2.12654],[-79.02293,-2.07635],[-79.03777,-2.06034],[-79.00665,-1.92475],[-79.02288,-1.85671],[-79.0126,-1.77477],[-78.9834,-1.75493],[-78.93249,-1.75714],[-78.90597,-1.73259],[-78.87992,-1.7407],[-78.86334,-1.71865],[-78.85125,-1.6287],[-78.88767,-1.62956],[-78.89769,-1.60102],[-78.86769,-1.51282],[-78.87779,-1.4914],[-78.84365,-1.45958],[-78.77257,-1.43013]]]}},{"type":"Feature","properties":{"codigo":"07","nombre":"El Oro","region":"Litoral"},"geometry":{"type":"Polygon","coordinates":[[[-79.84797,-3.04916],[-79.76498,-3.061],[-79.73088,-3.09759],[-79.61972,-3.13665],[-79.59868,-3.18065],[-79.60141,-3.21504],[-79.62774,-3.23215],[-79.64423,-3.30231],[-79.6689,-3.32171],[-79.61043,-3.32938],[-79.51489,-3.30744],[-79.46152,-3.33017],[-79.4747,-3.39823],[-79.46128,-3.43149],[-79.42203,-3.44372],[-79.48126,-3.51401],[-79.47908,-3.58079],[-79.49865,-3.60961],[-79.48251,-3.63624],[-79.42807,-3.57894],[-79.41543,-3.60722],[-79.37222,-3.63849],[-79.37578,-3.69059],[-79.41598,-3.72569],[-79.40506,-3.78273],[-79.44433,-3.8129],[-79.50046,-3.78953],[-79.56606,-3.80239],[-79.61907,-3.75012],[-79.6803,-3.77889],[-79.72454,-3.83233],[-79.7916,-3.84595],[-79.86424,-3.82036],[-79.95421,-3.82829],[-80.01156,-3.86785],[-80.13313,-3.88994],[-80.1596,-3.86855],[-80.16061,-3.80245],[-80.19316,-3.77491],[-80.18025,-3.73531],[-80.1996,-3.68822],[-80.18708,-3.67039],[-80.18856,-3.59985],[-80.21879,-3.57513],[-80.20522,-3.55233],[-80.21581,-3.50063],[-80.24576,-3.48582],[-80.22127,-3.43628],[-80.31369,-3.39213],[-80.27106,-3.32627],[-80.20989,-3.34311],[-80.11961,-3.33341],[-80.06486,-3.28366],[-80.02959,-3.20917],[-80.00108,-3.26253],[-79.99429,-3.22465],[-79.93114,-3.16275],[-79.90756,-3.16049],[-79.89238,-3.05424],[-79.89229,-3.07583],[-79.87784,-3.07526],[-79.84797,-3.04916]]]}},{"type":"Feature","properties":{"codigo":"08","nombre":"Esmeraldas","region":"Litoral"},"geometry":{"type":"Polygon","coordinates":[[[-78.77752,1.39067],[-78.75888,1.39386],[-78.69473,1.33018],[-78.66102,1.3197],[-78.64906,1.27652],[-78.62146,1.25006],[-78.54417,1.24475],[-78.54713,1.22694],[-78.51391,1.21344],[-78.51681,1.18842],[-78.49579,1.18515],[-78.51348,1.1588],[-78.4999,1.075],[-78.52225,1.06862],[-78.5474,1.03164],[-78.53633,0.98057],[-78.54688,0.94174],[-78.49599,0.89153],[-78.45318,0.8789],[-78.4416,0.81389],[-78.46742,0.77365],[-78.5363,0.77244],[-78.5164,0.75236],[-78.52445,0.72855],[-78.49232,0.70641],[-78.46078,0.62881],[-78.42992,0.60132],[-78.42885,0.57456],[-78.45366,0.53861],[-78.49814,0.54559],[-78.55187,0.51859],[-78.5603,0.48259],[-78.60055,0.45979],[-78.6169,0.41077],[-78.6594,0.37688],[-78.68811,0.37626],[-78.71857,0.40299],[-78.79793,0.40112],[-78.83363,0.4356],[-78.89236,0.38839],[-78.89533,0.368],[-78.91101,0.36265],[-78.911,0.40154],[-78.92775,0.3937],[-78.96124,0.34928],[-79.02292,0.30668],[-79.16209,0.3481],[-79.27178,0.33705],[-79.29803,0.25945],[-79.3631,0.23956],[-79.3041,0.17323],[-79.32491,0.1562],[-79.36798,0.02242],[-79.42754,0.02426],[-79.4246,0.00475],[-79.46362,0.0045],[-79.44717,-0.02991],[-79.43244,-0.02761],[-79.44864,-0.03968],[-79.57934,-0.0183],[-79.6008,-0.03068],[-79.6257,0.0363],[-79.56934,0.11509],[-79.61667,0.13242],[-79.62597,0.1579],[-79.65131,0.14317],[-79.66533,0.17808],[-79.6828,0.16402],[-79.71154,0.18207],[-79.66548,0.26227],[-79.71873,0.29367],[-79.72243,0.31942],[-79.70561,0.34335],[-79.72168,0.37252],[-79.77641,0.38122],[-79.81557,0.34576],[-79.8106,0.32219],[-79.90426,0.31514],[-79.89467,0.3021],[-79.9231,0.25551],[-79.97676,0.26789],[-79.99486,0.34371],[-80.04181,0.39789],[-80.02494,0.41793],[-80.05566,0.46715],[-80.04784,0.49469],[-80.01845,0.51282],[-80.00288,0.56628],[-80.03709,0.63287],[-80.06813,0.65605],[-80.08774,0.6484],[-80.10042,0.68059],[-80.09686,0.76486],[-80.0513,0.82527],[-79.95229,0.82587],[-79.91695,0.85708],[-79.80865,0.895],[-79.73821,0.96439],[-79.6493,0.99743],[-79.60801,0.98504],[-79.55321,0.99386],[-79.39591,1.08262],[-79.36874,1.06934],[-79.25949,1.08721],[-79.24938,1.07294],[-79.17176,1.09293],[-79.08755,1.16862],[-79.04683,1.24368],[-78.98306,1.28157],[-78.91049,1.37535],[-78.88601,1.38311],[-78.86869,1.46958],[-78.80223,1.42822],[-78.77752,1.39067]]]}},{"type":"Feature","properties":{"codigo":"09","nombre":"Guayas","region":"Litoral"},"geometry":{"type":"MultiPolygon","coordinates":[[[[-80.13819,-2.69684],[-80.12941,-2.70195],[-80.14092,-2.70156],[-80.13819,-2.69684]]],[[[-80.03558,-2.67551],[-79.90263,-2.73871],[-79.91008,-2.77493],[-80.00214,-2.81656],[-80.06544,-2.92783],[-80.09391,-2.93347],[-80.12311,-3.02017],[-80.16721,-3.01529],[-80.19341,-3.04135],[-80.25646,-3.02753],[-80.27447,-3.00401],[-80.26298,-2.86203],[-80.2181,-2.76446],[-80.22096,-2.7386],[-80.03558,-2.67551]]],[[[-79.90868,-2.67543],[-79.91814,-2.67617],[-79.91288,-2.66411],[-79.90868,-2.67543]]],[[[-80.17341,-2.65871],[-80.1898,-2.66396],[-80.17235,-2.65376],[-80.17341,-2.65871]]],[[[-80.19292,-2.6466],[-80.19013,-2.65507],[-80.20005,-2.65431],[-80.19292,-2.6466]]],[[[-79.79948,-2.53216],[-79.81573,-2.52559],[-79.81439,-2.51742],[-79.79948,-2.53216]]],[[[-79.81649,-2.55081],[-79.83965,-2.6595],[-79.88762,-2.65211],[-79.84819,-2.46955],[-79.81649,-2.55081]]],[[[-79.81317,-2.42952],[-79.8023,-2.49021],[-79.78405,-2.51871],[-79.79524,-2.53059],[-79.84235,-2.45065],[-79.83465,-2.40911],[-79.81317,-2.42952]]],[[[-79.57324,-0.84558],[-79.50697,-0.85821],[-79.5436,-0.95437],[-79.56391,-0.96294],[-79.52429,-0.97133],[-79.5617,-0.98353],[-79.58788,-1.06916],[-79.61706,-1.06421],[-79.64218,-1.10949],[-79.68377,-1.12306],[-79.68846,-1.15293],[-79.71567,-1.15315],[-79.71826,-1.18082],[-79.74873,-1.19205],[-79.76403,-1.26905],[-79.86506,-1.42159],[-79.86198,-1.48712],[-79.8781,-1.52335],[-79.85339,-1.57851],[-79.87132,-1.60186],[-79.86147,-1.64778],[-79.83765,-1.65482],[-79.85552,-1.66634],[-79.82671,-1.67469],[-79.83988,-1.68571],[-79.82611,-1.70767],[-79.74739,-1.73609],[-79.74842,-1.7875],[-79.71927,-1.82781],[-79.73135,-1.84619],[-79.68574,-1.86797],[-79.65698,-1.92306],[-79.64819,-1.8992],[-79.62069,-1.91342],[-79.5556,-1.88555],[-79.48896,-1.88426],[-79.44297,-1.93835],[-79.41954,-1.93519],[-79.40093,-1.96766],[-79.36865,-1.97127],[-79.31805,-2.08122],[-79.27246,-2.1132],[-79.23859,-2.13248],[-79.23581,-2.104],[-79.17585,-2.14592],[-79.16169,-2.1217],[-79.12703,-2.11773],[-79.12107,-2.14103],[-79.10533,-2.14371],[-79.13215,-2.17474],[-79.12699,-2.20271],[-79.24834,-2.19635],[-79.24893,-2.22065],[-79.14295,-2.21258],[-79.17537,-2.3038],[-79.2088,-2.31291],[-79.19009,-2.32875],[-79.2159,-2.35382],[-79.24754,-2.34953],[-79.26373,-2.38949],[-79.30604,-2.40116],[-79.33597,-2.37153],[-79.39334,-2.35875],[-79.41602,-2.33589],[-79.43363,-2.37333],[-79.41868,-2.37833],[-79.44812,-2.42007],[-79.42525,-2.43062],[-79.52419,-2.48785],[-79.52234,-2.50535],[-79.48848,-2.51095],[-79.51594,-2.52694],[-79.50893,-2.53965],[-79.45358,-2.49862],[-79.39514,-2.49709],[-79.37919,-2.52965],[-79.42829,-2.51804],[-79.425,-2.60678],[-79.4731,-2.60757],[-79.46004,-2.65739],[-79.48697,-2.67785],[-79.50294,-2.76774],[-79.63014,-2.82362],[-79.67032,-2.82485],[-79.60139,-2.85775],[-79.5917,-2.8766],[-79.55166,-2.8773],[-79.55077,-2.88954],[-79.62015,-2.89213],[-79.58575,-2.9081],[-79.64585,-2.9561],[-79.64525,-2.98948],[-79.66995,-2.97151],[-79.72587,-2.97921],[-79.71229,-3.01534],[-79.73405,-3.00999],[-79.76015,-3.06338],[-79.84994,-3.04719],[-79.87018,-3.06026],[-79.84547,-2.99853],[-79.85308,-2.87913],[-79.81595,-2.84503],[-79.81863,-2.79545],[-79.79202,-2.75625],[-79.78516,-2.66089],[-79.80344,-2.61523],[-79.78624,-2.54736],[-79.76899,-2.53343],[-79.816,-2.41075],[-79.85986,-2.39661],[-79.85582,-2.43155],[-79.89831,-2.57229],[-79.94463,-2.6081],[-79.93836,-2.65638],[-79.99468,-2.64933],[-80.03051,-2.61386],[-80.06109,-2.61096],[-80.06837,-2.59015],[-80.06598,-2.56814],[-80.02861,-2.55259],[-80.0177,-2.53089],[-80.01637,-2.50727],[-80.03575,-2.49992],[-80.02509,-2.42898],[-80.00851,-2.43207],[-80.00532,-2.36516],[-79.98056,-2.36489],[-79.93851,-2.31457],[-79.91213,-2.31468],[-79.91174,-2.29796],[-79.93992,-2.30147],[-79.98145,-2.34468],[-80.02057,-2.34544],[-80.10609,-2.52761],[-80.14785,-2.57123],[-80.15928,-2.56674],[-80.1731,-2.59648],[-80.20984,-2.6051],[-80.24375,-2.64494],[-80.25822,-2.63924],[-80.24083,-2.70695],[-80.25386,-2.74352],[-80.31397,-2.71547],[-80.39206,-2.6393],[-80.43533,-2.64152],[-80.56355,-2.50677],[-80.54296,-2.48887],[-80.45983,-2.49146],[-80.44755,-2.37459],[-80.3827,-2.37999],[-80.3687,-2.34361],[-80.32319,-2.35026],[-80.28419,-2.33689],[-80.28473,-2.27459],[-80.26482,-2.26477],[-80.26372,-2.24419],[-80.23521,-2.25241],[-80.23332,-2.2333],[-80.20033,-2.21072],[-80.23872,-2.19191],[-80.24495,-2.11506],[-80.26851,-2.08359],[-80.30351,-2.09236],[-80.3212,-2.07461],[-80.31272,-2.06377],[-80.34484,-1.9979],[-80.41074,-1.98313],[-80.44195,-1.9569],[-80.4171,-1.88172],[-80.44092,-1.88667],[-80.4466,-1.88306],[-80.4341,-1.8836],[-80.44075,-1.85879],[-80.40747,-1.83146],[-80.42622,-1.80894],[-80.4192,-1.7864],[-80.39233,-1.77619],[-80.3508,-1.72284],[-80.3333,-1.72396],[-80.32418,-1.68288],[-80.29032,-1.71012],[-80.28024,-1.70326],[-80.30012,-1.68653],[-80.28803,-1.67863],[-80.21028,-1.69429],[-80.22363,-1.61615],[-80.25259,-1.61615],[-80.28425,-1.56932],[-80.22021,-1.57432],[-80.1927,-1.55082],[-80.17162,-1.52653],[-80.20566,-1.49828],[-80.19697,-1.42502],[-80.14486,-1.40721],[-80.15376,-1.36676],[-80.13754,-1.32412],[-80.09551,-1.32647],[-80.04113,-1.2754],[-80.02535,-1.27695],[-80.03917,-1.25804],[-80.0108,-1.20495],[-79.9863,-1.17636],[-79.96089,-1.18969],[-79.95037,-1.17885],[-79.95309,-1.16457],[-79.97021,-1.16862],[-79.96326,-1.13933],[-79.94279,-1.15581],[-79.91668,-1.14524],[-79.84534,-1.08396],[-79.83342,-1.05016],[-79.80376,-1.03087],[-79.79712,-0.98311],[-79.77378,-0.9794],[-79.77123,-0.94757],[-79.7312,-0.88447],[-79.70034,-0.88618],[-79.7041,-0.9043],[-79.67072,-0.89133],[-79.66239,-0.90335],[-79.62377,-0.87574],[-79.62639,-0.85816],[-79.57324,-0.84558]]]]}},{"type":"Feature","properties":{"codigo":"10","nombre":"Imbabura","region":"Interandina"},"geometry":{"type":"Polygon","coordinates":[[[-78.45124,0.87444],[-78.38674,0.82504],[-78.32689,0.82009],[-78.20413,0.71789],[-78.18721,0.66921],[-78.13363,0.61507],[-78.12959,0.53032],[-78.09385,0.482],[-78.0111,0.47356],[-77.924,0.40165],[-77.86473,0.38114],[-77.83476,0.34439],[-77.81062,0.35393],[-77.85077,0.30579],[-77.8453,0.27909],[-77.829,0.27313],[-77.87047,0.20778],[-77.9244,0.19816],[-77.92349,0.18202],[-77.95649,0.15716],[-78.02398,0.18836],[-78.08813,0.18935],[-78.10799,0.15834],[-78.14836,0.1588],[-78.15398,0.1412],[-78.23003,0.12112],[-78.26682,0.13777],[-78.28291,0.12868],[-78.30681,0.18287],[-78.33933,0.20386],[-78.37373,0.15915],[-78.36386,0.20851],[-78.34346,0.22962],[-78.37437,0.26102],[-78.43358,0.19502],[-78.46635,0.25968],[-78.4969,0.27731],[-78.51016,0.22657],[-78.53729,0.20548],[-78.57583,0.22533],[-78.63817,0.20645],[-78.6826,0.2235],[-78.70911,0.21547],[-78.77703,0.24335],[-78.81115,0.23053],[-78.85595,0.23763],[-78.90989,0.21326],[-78.92407,0.22171],[-78.94625,0.20375],[-78.9663,0.2234],[-78.9811,0.21071],[-79.01,0.22597],[-79.01764,0.27699],[-79.05931,0.3072],[-79.11154,0.29833],[-79.13884,0.32164],[-79.27186,0.31988],[-79.26379,0.34044],[-79.16218,0.34811],[-79.02292,0.30668],[-78.96124,0.34928],[-78.92775,0.3937],[-78.911,0.40154],[-78.91101,0.36265],[-78.89533,0.368],[-78.89236,0.38839],[-78.83363,0.4356],[-78.79793,0.40112],[-78.71797,0.40285],[-78.67821,0.37344],[-78.64946,0.38287],[-78.61333,0.41638],[-78.60677,0.45294],[-78.5603,0.48259],[-78.55187,0.51859],[-78.49814,0.54559],[-78.46524,0.53201],[-78.42885,0.57456],[-78.43279,0.60779],[-78.46078,0.62881],[-78.49232,0.70641],[-78.52445,0.72855],[-78.5164,0.75236],[-78.5363,0.77244],[-78.48783,0.76806],[-78.45112,0.78931],[-78.45124,0.87444]]]}},{"type":"Feature","properties":{"codigo":"11","nombre":"Loja","region":"Interandina"},"geometry":{"type":"Polygon","coordinates":[[[-79.45511,-3.32962],[-79.37726,-3.34945],[-79.33435,-3.33981],[-79.30542,-3.35734],[-79.30204,-3.43585],[-79.27646,-3.47681],[-79.18124,-3.44078],[-79.13618,-3.52764],[-79.13345,-3.5984],[-79.09513,-3.62499],[-79.1064,-3.6479],[-79.15767,-3.66308],[-79.16147,-3.71497],[-79.19614,-3.72603],[-79.17664,-3.79424],[-79.14302,-3.8221],[-79.14542,-3.85628],[-79.12957,-3.87816],[-79.15146,-3.96374],[-79.13639,-4.03582],[-79.16274,-4.11485],[-79.15997,-4.15331],[-79.10794,-4.18501],[-79.10057,-4.20926],[-79.11473,-4.2674],[-79.10616,-4.28924],[-79.12101,-4.30824],[-79.10742,-4.35871],[-79.119,-4.42521],[-79.14174,-4.4324],[-79.16637,-4.47554],[-79.19353,-4.4774],[-79.20884,-4.51054],[-79.27985,-4.47313],[-79.32749,-4.50932],[-79.33328,-4.60609],[-79.35926,-4.6495],[-79.38072,-4.65698],[-79.39832,-4.71837],[-79.42766,-4.7473],[-79.45749,-4.70144],[-79.46334,-4.65193],[-79.48841,-4.62477],[-79.49442,-4.58104],[-79.47688,-4.56827],[-79.4961,-4.52093],[-79.5442,-4.52587],[-79.58106,-4.49793],[-79.60029,-4.45635],[-79.64431,-4.43348],[-79.707,-4.47178],[-79.81326,-4.49102],[-79.87008,-4.41428],[-79.91801,-4.38617],[-79.9613,-4.39571],[-79.99194,-4.38068],[-80.06127,-4.31069],[-80.1042,-4.29136],[-80.14296,-4.28587],[-80.15668,-4.30438],[-80.1715,-4.29012],[-80.18604,-4.33485],[-80.20636,-4.34052],[-80.19496,-4.35015],[-80.21933,-4.35424],[-80.22013,-4.37625],[-80.23227,-4.37294],[-80.2626,-4.41161],[-80.28503,-4.40812],[-80.29189,-4.43642],[-80.36273,-4.47972],[-80.39171,-4.4854],[-80.44939,-4.44789],[-80.45336,-4.38266],[-80.4243,-4.33045],[-80.30637,-4.20016],[-80.35348,-4.22088],[-80.36788,-4.19685],[-80.40945,-4.21819],[-80.43165,-4.19558],[-80.44914,-4.20885],[-80.44728,-4.121],[-80.46696,-4.12788],[-80.48635,-4.08229],[-80.47175,-4.07426],[-80.48186,-4.054],[-80.45091,-4.03095],[-80.44653,-3.99688],[-80.36607,-3.98169],[-80.29839,-4.0171],[-80.26282,-3.99999],[-80.23469,-3.9482],[-80.21656,-3.95662],[-80.13988,-3.91254],[-80.12215,-3.88527],[-80.01156,-3.86785],[-79.95421,-3.82829],[-79.86424,-3.82036],[-79.7916,-3.84595],[-79.72454,-3.83233],[-79.6803,-3.77889],[-79.61907,-3.75012],[-79.56606,-3.80239],[-79.50046,-3.78953],[-79.44433,-3.8129],[-79.4064,-3.786],[-79.41598,-3.72569],[-79.37578,-3.69059],[-79.37222,-3.63849],[-79.41543,-3.60722],[-79.42807,-3.57894],[-79.48251,-3.63624],[-79.49865,-3.60961],[-79.47908,-3.58079],[-79.48126,-3.51401],[-79.42203,-3.44372],[-79.46128,-3.43149],[-79.4747,-3.39823],[-79.45511,-3.32962]]]}},{"type":"Feature","properties":{"codigo":"12","nombre":"Los Ríos","region":"Litoral"},"geometry":{"type":"Polygon","coordinates":[[[-79.41668,-0.53857],[-79.34586,-0.54606],[-79.36683,-0.58023],[-79.34559,-0.63053],[-79.37036,-0.65473],[-79.34958,-0.69009],[-79.32379,-0.69877],[-79.28575,-0.69639],[-79.12524,-0.54274],[-79.08349,-0.5668],[-79.12892,-0.64938],[-79.13924,-0.71277],[-79.18668,-0.76406],[-79.18683,-0.7992],[-79.22042,-0.8115],[-79.24361,-0.87876],[-79.28674,-0.89047],[-79.30629,-0.92876],[-79.32051,-0.99825],[-79.29329,-0.98761],[-79.29371,-1.00889],[-79.33994,-1.12585],[-79.31503,-1.16666],[-79.28674,-1.17896],[-79.2888,-1.20557],[-79.33245,-1.22394],[-79.34915,-1.27218],[-79.3926,-1.32222],[-79.36942,-1.32829],[-79.33718,-1.29293],[-79.31646,-1.32575],[-79.26649,-1.33139],[-79.27845,-1.35487],[-79.29701,-1.3556],[-79.28887,-1.39363],[-79.32781,-1.39689],[-79.33647,-1.43649],[-79.31683,-1.43768],[-79.36131,-1.45182],[-79.34715,-1.47172],[-79.33128,-1.46115],[-79.32183,-1.51272],[-79.24521,-1.5436],[-79.24811,-1.56106],[-79.27862,-1.61048],[-79.2987,-1.59942],[-79.31675,-1.62758],[-79.35565,-1.63774],[-79.31994,-1.64764],[-79.31954,-1.65971],[-79.28855,-1.65133],[-79.29133,-1.66946],[-79.27325,-1.66881],[-79.26957,-1.69842],[-79.23178,-1.74361],[-79.25201,-1.81477],[-79.23,-1.84253],[-79.24621,-1.85797],[-79.25603,-1.94104],[-79.25603,-1.97824],[-79.24016,-1.99117],[-79.27156,-2.00424],[-79.26479,-2.03479],[-79.22775,-2.07559],[-79.18805,-2.07694],[-79.22194,-2.08431],[-79.20771,-2.11082],[-79.24443,-2.10307],[-79.23859,-2.13248],[-79.31805,-2.08122],[-79.36865,-1.97127],[-79.40093,-1.96766],[-79.41954,-1.93519],[-79.44297,-1.93835],[-79.48896,-1.88426],[-79.5556,-1.88555],[-79.62069,-1.91342],[-79.64819,-1.8992],[-79.64819,-1.92193],[-79.66095,-1.92012],[-79.68574,-1.86797],[-79.73135,-1.84619],[-79.71927,-1.82781],[-79.74842,-1.7875],[-79.74739,-1.73609],[-79.82643,-1.70737],[-79.83988,-1.68571],[-79.82671,-1.67469],[-79.85552,-1.66634],[-79.83765,-1.65482],[-79.86147,-1.64778],[-79.87132,-1.60186],[-79.85339,-1.57851],[-79.8781,-1.52335],[-79.86198,-1.48712],[-79.86751,-1.42894],[-79.76396,-1.26891],[-79.74873,-1.19205],[-79.71826,-1.18082],[-79.71567,-1.15315],[-79.68846,-1.15293],[-79.68377,-1.12306],[-79.64218,-1.10949],[-79.61706,-1.06421],[-79.58788,-1.06916],[-79.5617,-0.98353],[-79.52429,-0.97133],[-79.56391,-0.96294],[-79.5436,-0.95437],[-79.50697,-0.85821],[-79.61122,-0.8507],[-79.59818,-0.82812],[-79.60136,-0.7452],[-79.57614,-0.6997],[-79.56348,-0.7217],[-79.53578,-0.71785],[-79.54267,-0.65809],[-79.52506,-0.65716],[-79.5007,-0.60851],[-79.48511,-0.60958],[-79.49731,-0.5691],[-79.48842,-0.54605],[-79.46166,-0.54849],[-79.4574,-0.56436],[-79.41668,-0.53857]]]}},{"type":"Feature","properties":{"codigo":"13","nombre":"Manabí","region":"Litoral"},"geometry":{"type":"Polygon","coordinates":[[[-79.75931,0.38117],[-79.72108,0.37193],[-79.70561,0.34335],[-79.72243,0.31942],[-79.71873,0.29367],[-79.66576,0.2638],[-79.71154,0.18207],[-79.6828,0.16402],[-79.66533,0.17808],[-79.65131,0.14317],[-79.62597,0.1579],[-79.61667,0.13242],[-79.56934,0.11509],[-79.6257,0.0363],[-79.60283,-0.01962],[-79.60898,-0.05346],[-79.54841,-0.09943],[-79.51937,-0.16389],[-79.42982,-0.17554],[-79.40973,-0.19136],[-79.41076,-0.4107],[-79.46398,-0.46891],[-79.4495,-0.47962],[-79.45952,-0.51185],[-79.49721,-0.56821],[-79.48511,-0.60958],[-79.50107,-0.60895],[-79.52525,-0.65738],[-79.54241,-0.6573],[-79.53578,-0.71785],[-79.56348,-0.7217],[-79.57614,-0.6997],[-79.60136,-0.7452],[-79.60768,-0.85554],[-79.62646,-0.85822],[-79.62377,-0.87574],[-79.66239,-0.90335],[-79.67072,-0.89133],[-79.7041,-0.9043],[-79.70034,-0.88618],[-79.7312,-0.88447],[-79.77123,-0.94757],[-79.77378,-0.9794],[-79.79712,-0.98311],[-79.80376,-1.03087],[-79.83342,-1.05016],[-79.84534,-1.08396],[-79.91668,-1.14524],[-79.94279,-1.15581],[-79.96326,-1.13933],[-79.97021,-1.16862],[-79.95309,-1.16457],[-79.95037,-1.17885],[-79.96089,-1.18969],[-79.9863,-1.17636],[-80.0108,-1.20495],[-80.03917,-1.25804],[-80.02535,-1.27695],[-80.04113,-1.2754],[-80.09551,-1.32647],[-80.13754,-1.32412],[-80.15376,-1.36676],[-80.14486,-1.40721],[-80.19697,-1.42502],[-80.20566,-1.49828],[-80.17162,-1.52653],[-80.22021,-1.57432],[-80.28425,-1.56932],[-80.25259,-1.61615],[-80.22363,-1.61615],[-80.21028,-1.69429],[-80.28803,-1.67863],[-80.30012,-1.68653],[-80.28024,-1.70326],[-80.29032,-1.71012],[-80.32541,-1.68385],[-80.3333,-1.72396],[-80.3508,-1.72284],[-80.39233,-1.77619],[-80.4192,-1.7864],[-80.42626,-1.80881],[-80.40845,-1.83593],[-80.4282,-1.83647],[-80.4341,-1.8836],[-80.44329,-1.88123],[-80.44701,-1.8821],[-80.44092,-1.88667],[-80.41711,-1.88161],[-80.43257,-1.89988],[-80.42832,-1.92501],[-80.46525,-1.94739],[-80.47356,-1.92585],[-80.51913,-1.91998],[-80.5165,-1.90248],[-80.57119,-1.8244],[-80.54896,-1.78079],[-80.59414,-1.7786],[-80.64662,-1.67045],[-80.7237,-1.68665],[-80.74814,-1.66865],[-80.80546,-1.70895],[-80.85437,-1.59977],[-80.84196,-1.56677],[-80.81357,-1.55854],[-80.81582,-1.50977],[-80.79211,-1.47864],[-80.76727,-1.47525],[-80.76716,-1.43761],[-80.75158,-1.42007],[-80.76217,-1.38901],[-80.7392,-1.35733],[-80.85012,-1.2054],[-80.91255,-1.05868],[-80.82938,-0.95572],[-80.78782,-0.95832],[-80.72459,-0.93691],[-80.72225,-0.93028],[-80.72189,-0.93],[-80.71957,-0.92966],[-80.72031,-0.95013],[-80.69725,-0.94858],[-80.66721,-0.92482],[-80.61877,-0.94462],[-80.54609,-0.88184],[-80.4703,-0.63995],[-80.4219,-0.59465],[-80.45899,-0.45796],[-80.49317,-0.39895],[-80.48832,-0.36587],[-80.46981,-0.36653],[-80.40724,-0.31164],[-80.37971,-0.23368],[-80.34598,-0.21035],[-80.32615,-0.172],[-80.30633,-0.18895],[-80.26548,-0.16721],[-80.14161,-0.04879],[-80.09588,0.0122],[-80.08869,0.04884],[-80.0666,0.05282],[-80.03161,0.17712],[-80.03983,0.36713],[-80.03002,0.37388],[-79.99752,0.34849],[-79.97676,0.26789],[-79.93174,0.25404],[-79.90368,0.27653],[-79.90476,0.31481],[-79.8106,0.32219],[-79.80546,0.36284],[-79.75931,0.38117]]]}},{"type":"Feature","properties":{"codigo":"14","nombre":"Morona","region":"Amazonía"},"geometry":{"type":"Polygon","coordinates":[[[-78.18004,-1.44851],[-78.12365,-1.45377],[-78.06481,-1.52779],[-78.02167,-1.67563],[-77.92275,-1.65456],[-77.88906,-1.69127],[-77.88521,-1.76208],[-77.86896,-1.75617],[-77.84633,-1.83732],[-77.85588,-1.84684],[-77.82736,-1.86824],[-77.82359,-1.92214],[-77.79503,-1.93327],[-77.77853,-1.97124],[-77.73187,-1.98523],[-77.71537,-2.02576],[-77.67184,-2.05052],[-77.61664,-2.04245],[-77.56857,-2.07984],[-77.51363,-2.08222],[-77.40584,-2.1501],[-77.35237,-2.15989],[-77.28009,-2.20193],[-77.23559,-2.26131],[-77.19092,-2.27018],[-77.16771,-2.30157],[-77.13534,-2.30334],[-77.08716,-2.34382],[-77.08149,-2.37642],[-77.04884,-2.40652],[-77.03144,-2.45096],[-77.00068,-2.4605],[-76.99696,-2.51465],[-76.96598,-2.51412],[-76.94477,-2.55457],[-76.9297,-2.54413],[-76.91742,-2.56422],[-76.89922,-2.55342],[-76.88323,-2.56672],[-76.82047,-2.54352],[-76.80027,-2.5707],[-76.77962,-2.55242],[-76.75697,-2.56318],[-76.73817,-2.55369],[-76.69211,-2.60997],[-77.8445,-2.999],[-77.83994,-3.00805],[-77.94708,-3.07216],[-78.01183,-3.17813],[-78.06187,-3.22722],[-78.09117,-3.21632],[-78.11333,-3.28647],[-78.19279,-3.36169],[-78.18724,-3.3974],[-78.15505,-3.42096],[-78.14499,-3.46166],[-78.14892,-3.48066],[-78.18436,-3.49952],[-78.23113,-3.49945],[-78.2469,-3.4022],[-78.34673,-3.38092],[-78.35575,-3.40363],[-78.34253,-3.43048],[-78.36514,-3.52927],[-78.53481,-3.52819],[-78.58726,-3.55127],[-78.6312,-3.53433],[-78.66725,-3.54964],[-78.68424,-3.58775],[-78.72078,-3.56197],[-78.75468,-3.56874],[-78.8318,-3.54937],[-78.84371,-3.5167],[-78.87052,-3.50227],[-78.88132,-3.4015],[-78.94287,-3.34643],[-78.95389,-3.29978],[-78.93433,-3.29614],[-78.9344,-3.27311],[-78.91215,-3.27315],[-78.85691,-3.2297],[-78.83504,-3.2457],[-78.74287,-3.1407],[-78.7053,-3.13678],[-78.67083,-3.06303],[-78.65882,-2.98989],[-78.63142,-2.97057],[-78.63162,-2.91355],[-78.57555,-2.85105],[-78.57563,-2.83058],[-78.61464,-2.78673],[-78.5921,-2.76158],[-78.5795,-2.70926],[-78.42214,-2.63061],[-78.43658,-2.59911],[-78.4811,-2.57236],[-78.51491,-2.5829],[-78.53213,-2.62653],[-78.54582,-2.60549],[-78.53939,-2.57083],[-78.50459,-2.52993],[-78.48514,-2.4375],[-78.46257,-2.41573],[-78.4816,-2.41414],[-78.48532,-2.37254],[-78.50054,-2.38142],[-78.54383,-2.33562],[-78.5872,-2.31859],[-78.5458,-2.3003],[-78.53635,-2.24205],[-78.50508,-2.24649],[-78.48855,-2.22101],[-78.51345,-2.13308],[-78.45016,-2.11797],[-78.43329,-2.09004],[-78.45251,-2.06415],[-78.44189,-2.01164],[-78.4587,-1.98993],[-78.47894,-2.00332],[-78.48931,-1.95897],[-78.46359,-1.94986],[-78.45733,-1.92149],[-78.40365,-1.87868],[-78.39711,-1.85224],[-78.44587,-1.76212],[-78.46759,-1.75191],[-78.43222,-1.68541],[-78.36381,-1.64487],[-78.37648,-1.53591],[-78.34848,-1.52358],[-78.34519,-1.50355],[-78.28475,-1.47916],[-78.26514,-1.50333],[-78.19684,-1.47487],[-78.18004,-1.44851]]]}},{"type":"Feature","properties":{"codigo":"15","nombre":"Napo","region":"Amazonía"},"geometry":{"type":"Polygon","coordinates":[[[-77.82137,0.03401],[-77.77945,0.01087],[-77.79446,-0.01628],[-77.78231,-0.08311],[-77.63811,-0.07609],[-77.58397,-0.10911],[-77.5361,-0.05558],[-77.51057,-0.06421],[-77.50788,-0.03983],[-77.48703,-0.0402],[-77.46931,-0.01796],[-77.43831,-0.06279],[-77.45783,-0.08379],[-77.44457,-0.09794],[-77.45205,-0.13872],[-77.42919,-0.13081],[-77.3779,-0.15224],[-77.3413,-0.1234],[-77.30497,-0.05938],[-77.28611,-0.10346],[-77.27844,-0.13667],[-77.29696,-0.14544],[-77.29847,-0.2039],[-77.26054,-0.23852],[-77.27471,-0.26164],[-77.25357,-0.26963],[-77.25632,-0.30811],[-77.27629,-0.34087],[-77.2977,-0.3363],[-77.33414,-0.37026],[-77.32699,-0.42418],[-77.36495,-0.42876],[-77.39066,-0.49478],[-77.42865,-0.52205],[-77.56194,-0.45548],[-77.55941,-0.49486],[-77.62869,-0.54348],[-77.59048,-0.57387],[-77.58039,-0.60968],[-77.53252,-0.6249],[-77.52518,-0.66949],[-77.49695,-0.70181],[-77.54241,-0.79109],[-77.52474,-0.82071],[-77.53486,-0.87351],[-77.55204,-0.90236],[-77.58759,-0.91204],[-77.59026,-0.92987],[-77.51553,-0.9508],[-77.45264,-0.91613],[-77.45081,-0.89887],[-77.38437,-0.89169],[-77.32422,-0.84667],[-77.27759,-0.83779],[-77.25253,-0.79216],[-77.19921,-0.76716],[-77.16355,-0.70736],[-77.12278,-0.69481],[-77.12163,-0.72796],[-77.20682,-0.79996],[-77.19681,-0.85357],[-77.15034,-0.86843],[-77.13591,-0.90193],[-77.02392,-0.91984],[-77.07171,-0.95139],[-77.06867,-0.97544],[-77.03216,-0.98997],[-77.08065,-1.01464],[-77.2294,-1.02587],[-77.24402,-1.0573],[-77.34944,-1.06895],[-77.35267,-1.10478],[-77.40439,-1.07881],[-77.45114,-1.07769],[-77.44561,-1.0944],[-77.52217,-1.12088],[-77.56064,-1.15903],[-77.59591,-1.12416],[-77.61576,-1.14901],[-77.64457,-1.13306],[-77.66991,-1.15034],[-77.68787,-1.13985],[-77.72132,-1.17997],[-77.74053,-1.16144],[-77.83208,-1.21818],[-77.87904,-1.19997],[-77.88242,-1.24474],[-77.93876,-1.22787],[-77.94656,-1.20544],[-78.05144,-1.24882],[-78.09531,-1.22612],[-78.1107,-1.23349],[-78.12376,-1.22307],[-78.11687,-1.18861],[-78.18807,-1.18275],[-78.19001,-1.15872],[-78.22916,-1.13894],[-78.26421,-1.15703],[-78.26649,-1.1392],[-78.31133,-1.14285],[-78.32209,-1.16486],[-78.35094,-1.17378],[-78.3594,-1.16099],[-78.33798,-1.13516],[-78.32616,-1.04383],[-78.36115,-0.9987],[-78.39488,-0.99785],[-78.39559,-0.96299],[-78.42975,-0.94489],[-78.40743,-0.91382],[-78.42763,-0.87842],[-78.40305,-0.87098],[-78.38897,-0.81129],[-78.39292,-0.74742],[-78.41122,-0.71943],[-78.39507,-0.67667],[-78.3302,-0.65882],[-78.31993,-0.58307],[-78.28812,-0.57905],[-78.27009,-0.54212],[-78.27011,-0.50977],[-78.23533,-0.45087],[-78.256,-0.40848],[-78.19106,-0.31873],[-78.18997,-0.19779],[-78.14056,-0.16679],[-78.0845,-0.18985],[-78.0551,-0.16377],[-78.05775,-0.14622],[-78.01889,-0.14104],[-77.99546,-0.11116],[-77.96957,-0.12278],[-77.95489,-0.09505],[-77.93282,-0.10044],[-77.93453,-0.04121],[-77.85272,-0.0041],[-77.82137,0.03401]]]}},{"type":"Feature","properties":{"codigo":"16","nombre":"Pastaza","region":"Amazonía"},"geometry":{"type":"Polygon","coordinates":[[[-77.06452,-1.00501],[-77.09259,-1.03695],[-77.06699,-1.08622],[-76.89678,-1.12713],[-76.85845,-1.16283],[-76.83211,-1.15923],[-76.82988,-1.11189],[-76.7738,-1.09066],[-76.72749,-1.10593],[-76.72054,-1.08225],[-76.65286,-1.05681],[-76.60325,-1.07301],[-76.56346,-1.05954],[-76.54637,-1.06853],[-76.53078,-1.05197],[-76.51354,-1.09535],[-76.53055,-1.19265],[-76.49294,-1.21559],[-76.47087,-1.26384],[-76.45811,-1.24776],[-76.451,-1.27164],[-76.43699,-1.25709],[-76.41936,-1.2721],[-76.396,-1.25413],[-76.35687,-1.28043],[-76.36545,-1.29458],[-76.29305,-1.30364],[-76.28854,-1.32054],[-76.27165,-1.29582],[-76.2533,-1.30697],[-76.24742,-1.28697],[-76.2378,-1.30093],[-76.18718,-1.28639],[-76.1605,-1.30163],[-76.13461,-1.275],[-76.09018,-1.28143],[-76.0824,-1.29655],[-76.06391,-1.2781],[-76.06325,-1.30685],[-76.04929,-1.29716],[-76.03586,-1.31492],[-76.00243,-1.30918],[-75.99735,-1.33437],[-75.97241,-1.32927],[-75.94912,-1.35785],[-75.92012,-1.34586],[-75.91506,-1.36143],[-75.89376,-1.34891],[-75.9004,-1.33389],[-75.87656,-1.33175],[-75.87971,-1.35649],[-75.845,-1.35565],[-75.8358,-1.3917],[-75.82255,-1.38306],[-75.7936,-1.40455],[-75.77715,-1.39528],[-75.76006,-1.41496],[-75.74939,-1.40519],[-75.71985,-1.46231],[-75.69994,-1.44755],[-75.69965,-1.46469],[-75.67527,-1.46795],[-75.66358,-1.48799],[-75.64951,-1.47584],[-75.65046,-1.49349],[-75.63661,-1.48222],[-75.63392,-1.50034],[-75.60955,-1.49269],[-75.58787,-1.51029],[-75.58539,-1.5497],[-76.04325,-2.12462],[-76.63357,-2.59019],[-76.69211,-2.60997],[-76.73817,-2.55369],[-76.75697,-2.56318],[-76.77962,-2.55242],[-76.80027,-2.5707],[-76.82047,-2.54352],[-76.88323,-2.56672],[-76.89922,-2.55342],[-76.91742,-2.56422],[-76.9297,-2.54413],[-76.94477,-2.55457],[-76.96598,-2.51412],[-76.99696,-2.51465],[-77.00068,-2.4605],[-77.03144,-2.45096],[-77.04884,-2.40652],[-77.08149,-2.37642],[-77.08716,-2.34382],[-77.13534,-2.30334],[-77.16771,-2.30157],[-77.19092,-2.27018],[-77.23559,-2.26131],[-77.28009,-2.20193],[-77.35237,-2.15989],[-77.40584,-2.1501],[-77.51363,-2.08222],[-77.56857,-2.07984],[-77.61664,-2.04245],[-77.67184,-2.05052],[-77.71537,-2.02576],[-77.73187,-1.98523],[-77.77853,-1.97124],[-77.79503,-1.93327],[-77.82359,-1.92214],[-77.82736,-1.86824],[-77.85588,-1.84684],[-77.84633,-1.83732],[-77.86896,-1.75617],[-77.88521,-1.76208],[-77.88906,-1.69127],[-77.92275,-1.65456],[-78.0212,-1.67603],[-78.07944,-1.50517],[-78.12693,-1.45177],[-78.17795,-1.44868],[-78.15117,-1.42942],[-78.1483,-1.39726],[-78.11856,-1.35956],[-78.11007,-1.27871],[-78.12376,-1.22307],[-78.05144,-1.24882],[-77.94626,-1.20546],[-77.93876,-1.22787],[-77.88212,-1.24469],[-77.87904,-1.19997],[-77.83208,-1.21818],[-77.74053,-1.16144],[-77.72132,-1.17997],[-77.68787,-1.13985],[-77.66991,-1.15034],[-77.64457,-1.13306],[-77.61576,-1.14901],[-77.59591,-1.12416],[-77.56064,-1.15903],[-77.52217,-1.12088],[-77.44561,-1.0944],[-77.45114,-1.07769],[-77.40439,-1.07881],[-77.35267,-1.10478],[-77.34944,-1.06895],[-77.24402,-1.0573],[-77.22489,-1.02431],[-77.06452,-1.00501]]]}},{"type":"Feature","properties":{"codigo":"17","nombre":"Pichincha","region":"Interandina"},"geometry":{"type":"Polygon","coordinates":[[[-79.2739,0.32233],[-79.13342,0.32087],[-79.11154,0.29833],[-79.05931,0.3072],[-79.01764,0.27699],[-79.01,0.22597],[-78.9811,0.21071],[-78.9663,0.2234],[-78.94625,0.20375],[-78.92407,0.22171],[-78.90989,0.21326],[-78.85595,0.23763],[-78.81115,0.23053],[-78.77703,0.24335],[-78.70911,0.21547],[-78.6826,0.2235],[-78.63817,0.20645],[-78.57583,0.22533],[-78.53729,0.20548],[-78.51016,0.22657],[-78.4969,0.27731],[-78.46635,0.25968],[-78.43358,0.19502],[-78.37437,0.26102],[-78.34346,0.22962],[-78.36386,0.20851],[-78.37373,0.15915],[-78.33933,0.20386],[-78.30681,0.18287],[-78.28291,0.12868],[-78.26682,0.13777],[-78.23003,0.12112],[-78.15398,0.1412],[-78.14836,0.1588],[-78.10799,0.15834],[-78.08813,0.18935],[-78.02398,0.18836],[-77.96668,0.16846],[-77.97674,0.10559],[-77.96226,0.11285],[-77.91824,0.08176],[-77.89007,0.08311],[-77.85938,0.06225],[-77.855,0.02509],[-77.84007,0.0169],[-77.85272,-0.0041],[-77.94279,-0.05129],[-77.93282,-0.10044],[-77.95489,-0.09505],[-77.96957,-0.12278],[-77.99546,-0.11116],[-78.01889,-0.14104],[-78.05775,-0.14622],[-78.0551,-0.16377],[-78.0845,-0.18985],[-78.14056,-0.16679],[-78.18988,-0.19763],[-78.1929,-0.32489],[-78.256,-0.40848],[-78.23661,-0.45605],[-78.27011,-0.50977],[-78.28753,-0.57853],[-78.32053,-0.58424],[-78.3302,-0.65882],[-78.36295,-0.67646],[-78.39647,-0.67651],[-78.37151,-0.67287],[-78.36352,-0.66179],[-78.4299,-0.6009],[-78.45082,-0.62076],[-78.47356,-0.61321],[-78.48784,-0.6368],[-78.53782,-0.6197],[-78.55136,-0.63383],[-78.55966,-0.61275],[-78.57941,-0.61787],[-78.61155,-0.59749],[-78.64812,-0.64281],[-78.71586,-0.66306],[-78.73913,-0.62196],[-78.73342,-0.55966],[-78.8323,-0.5247],[-78.86156,-0.43376],[-78.89309,-0.41279],[-78.91833,-0.34032],[-78.95485,-0.31664],[-78.86748,-0.33169],[-78.85655,-0.34939],[-78.82229,-0.34627],[-78.77381,-0.2983],[-78.77317,-0.27917],[-78.74613,-0.27742],[-78.78393,-0.21187],[-78.83236,-0.1885],[-78.83541,-0.13732],[-78.89187,-0.10673],[-78.92878,-0.12115],[-78.96497,-0.1012],[-79.02441,-0.11777],[-79.10201,-0.08301],[-79.14945,-0.0919],[-79.09761,-0.02657],[-79.18359,-0.01447],[-79.2378,0.01216],[-79.36798,0.02242],[-79.32491,0.1562],[-79.3041,0.17323],[-79.33023,0.21054],[-79.34857,0.21246],[-79.35984,0.24752],[-79.29803,0.25945],[-79.2739,0.32233]]]}},{"type":"Feature","properties":{"codigo":"18","nombre":"Tungurahua","region":"Interandina"},"geometry":{"type":"Polygon","coordinates":[[[-78.40377,-0.99453],[-78.36115,-0.9987],[-78.32616,-1.04383],[-78.33798,-1.13516],[-78.3594,-1.16099],[-78.35104,-1.17372],[-78.32209,-1.16486],[-78.31133,-1.14285],[-78.26649,-1.1392],[-78.26421,-1.15703],[-78.22916,-1.13894],[-78.19001,-1.15872],[-78.18807,-1.18275],[-78.11664,-1.18884],[-78.11932,-1.36245],[-78.1483,-1.39726],[-78.15117,-1.42942],[-78.19241,-1.45541],[-78.19682,-1.47485],[-78.26535,-1.50335],[-78.29761,-1.48004],[-78.34519,-1.50355],[-78.34852,-1.52359],[-78.36447,-1.49696],[-78.42332,-1.48535],[-78.49891,-1.43395],[-78.51318,-1.47418],[-78.54205,-1.46012],[-78.53996,-1.47985],[-78.5631,-1.47565],[-78.62727,-1.5084],[-78.63642,-1.49316],[-78.68836,-1.49667],[-78.77257,-1.43013],[-78.85256,-1.4709],[-78.8866,-1.45878],[-78.93174,-1.40197],[-78.93886,-1.35786],[-78.89304,-1.28466],[-78.89405,-1.22438],[-78.85929,-1.17358],[-78.84592,-1.18305],[-78.79682,-1.14448],[-78.74516,-1.13228],[-78.72501,-1.14991],[-78.66524,-1.15462],[-78.61347,-1.11013],[-78.56771,-1.11566],[-78.56247,-1.08411],[-78.57653,-1.07392],[-78.55925,-1.05886],[-78.5234,-1.05929],[-78.50212,-1.09418],[-78.46588,-1.08805],[-78.40377,-0.99453]]]}},{"type":"Feature","properties":{"codigo":"19","nombre":"Zamora Ch.","region":"Amazonía"},"geometry":{"type":"Polygon","coordinates":[[[-78.94573,-3.34286],[-78.88137,-3.4014],[-78.87052,-3.50227],[-78.84371,-3.5167],[-78.8318,-3.54937],[-78.75468,-3.56874],[-78.72078,-3.56197],[-78.68424,-3.58775],[-78.66725,-3.54964],[-78.6312,-3.53433],[-78.58726,-3.55127],[-78.53481,-3.52819],[-78.36514,-3.52927],[-78.39214,-3.56013],[-78.39294,-3.67809],[-78.42355,-3.69284],[-78.40611,-3.74413],[-78.41171,-3.78874],[-78.43476,-3.81988],[-78.46473,-3.82739],[-78.49022,-3.93617],[-78.52399,-3.93732],[-78.56664,-3.99329],[-78.56833,-4.04658],[-78.54141,-4.07496],[-78.58265,-4.13598],[-78.57774,-4.1966],[-78.60662,-4.21981],[-78.6139,-4.28997],[-78.64644,-4.32157],[-78.64085,-4.40149],[-78.59885,-4.42311],[-78.6242,-4.44276],[-78.63463,-4.50119],[-78.66152,-4.53007],[-78.65306,-4.58517],[-78.71434,-4.62829],[-78.80395,-4.63685],[-78.85531,-4.66668],[-78.89104,-4.72052],[-78.88928,-4.76343],[-78.91487,-4.78051],[-78.89156,-4.80829],[-78.91245,-4.84937],[-78.89201,-4.88679],[-78.97435,-4.89641],[-79.01529,-5.01616],[-79.07078,-4.99021],[-79.07589,-4.96978],[-79.26556,-4.96688],[-79.30627,-4.8985],[-79.35198,-4.88042],[-79.36916,-4.83389],[-79.39795,-4.82938],[-79.42766,-4.7473],[-79.39832,-4.71837],[-79.38072,-4.65698],[-79.35926,-4.6495],[-79.33328,-4.60609],[-79.32749,-4.50932],[-79.27985,-4.47313],[-79.20884,-4.51054],[-79.19824,-4.4822],[-79.16637,-4.47554],[-79.11136,-4.40673],[-79.12101,-4.30824],[-79.10616,-4.28924],[-79.11473,-4.2674],[-79.10057,-4.20926],[-79.10794,-4.18501],[-79.15997,-4.15331],[-79.16274,-4.11485],[-79.13639,-4.03582],[-79.15146,-3.96374],[-79.12957,-3.87816],[-79.14542,-3.85628],[-79.14302,-3.8221],[-79.17664,-3.79424],[-79.19614,-3.72603],[-79.16147,-3.71497],[-79.15767,-3.66308],[-79.1064,-3.6479],[-79.10952,-3.63205],[-79.05789,-3.61007],[-79.06896,-3.59071],[-79.04487,-3.57673],[-79.05672,-3.57219],[-79.04608,-3.54944],[-79.06731,-3.5028],[-79.04286,-3.47238],[-79.06885,-3.43808],[-79.05101,-3.39966],[-78.98976,-3.35346],[-78.94573,-3.34286]]]}},{"type":"Feature","properties":{"codigo":"20","nombre":"Galápagos","region":"Insular"},"geometry":{"type":"MultiPolygon","coordinates":[[[[-89.64607,-1.40931],[-89.64642,-1.4095],[-89.64651,-1.40915],[-89.64607,-1.40931]]],[[[-89.65503,-1.40749],[-89.65456,-1.40771],[-89.655,-1.40797],[-89.65503,-1.40749]]],[[[-89.73661,-1.37752],[-89.7352,-1.3783],[-89.7352,-1.37922],[-89.73661,-1.37752]]],[[[-89.64456,-1.35757],[-89.64357,-1.35786],[-89.64425,-1.35803],[-89.64456,-1.35757]]],[[[-89.64882,-1.35152],[-89.64685,-1.35197],[-89.64953,-1.35294],[-89.64882,-1.35152]]],[[[-90.3075,-1.34661],[-90.30945,-1.34685],[-90.30738,-1.34628],[-90.3075,-1.34661]]],[[[-89.66151,-1.3467],[-89.66227,-1.34682],[-89.66222,-1.34655],[-89.66151,-1.3467]]],[[[-89.66644,-1.34532],[-89.62405,-1.37873],[-89.62973,-1.41039],[-89.6796,-1.40163],[-89.68544,-1.40439],[-89.68968,-1.39509],[-89.70411,-1.39578],[-89.73904,-1.37347],[-89.74455,-1.37523],[-89.70012,-1.34451],[-89.66644,-1.34532]]],[[[-89.64815,-1.34205],[-89.63876,-1.34396],[-89.64927,-1.34692],[-89.64815,-1.34205]]],[[[-90.30017,-1.33162],[-90.28978,-1.33094],[-90.29686,-1.3386],[-90.30017,-1.33162]]],[[[-90.34019,-1.30639],[-90.3388,-1.30773],[-90.33951,-1.31257],[-90.34019,-1.30639]]],[[[-90.35096,-1.27325],[-90.35138,-1.27405],[-90.3516,-1.27335],[-90.35096,-1.27325]]],[[[-90.36103,-1.26277],[-90.36119,-1.26283],[-90.36085,-1.26264],[-90.36103,-1.26277]]],[[[-90.36032,-1.26253],[-90.36059,-1.26266],[-90.3606,-1.26246],[-90.36032,-1.26253]]],[[[-90.36155,-1.26224],[-90.3618,-1.26232],[-90.36166,-1.26217],[-90.36155,-1.26224]]],[[[-90.38757,-1.23697],[-90.38421,-1.23851],[-90.38663,-1.23938],[-90.38757,-1.23697]]],[[[-90.36391,-1.23362],[-90.36013,-1.2319],[-90.35958,-1.23343],[-90.36391,-1.23362]]],[[[-90.4457,-1.22705],[-90.44214,-1.22816],[-90.44559,-1.22783],[-90.4457,-1.22705]]],[[[-90.44049,-1.22518],[-90.44084,-1.22519],[-90.44055,-1.22507],[-90.44049,-1.22518]]],[[[-90.42574,-1.22018],[-90.35227,-1.27721],[-90.39965,-1.34422],[-90.45468,-1.35989],[-90.49939,-1.33983],[-90.51124,-1.31576],[-90.47856,-1.23247],[-90.45512,-1.23968],[-90.42574,-1.22018]],[[-90.4886,-1.27948],[-90.48891,-1.28062],[-90.48837,-1.27961],[-90.4886,-1.27948]]],[[[-90.42232,-1.21614],[-90.42374,-1.2165],[-90.42377,-1.21551],[-90.42232,-1.21614]]],[[[-90.87018,-1.02986],[-90.87071,-1.03027],[-90.87096,-1.03014],[-90.87018,-1.02986]]],[[[-90.88277,-1.02551],[-90.88145,-1.02592],[-90.88115,-1.02768],[-90.88277,-1.02551]]],[[[-90.87287,-1.00745],[-90.86343,-1.01271],[-90.86195,-1.01627],[-90.86253,-1.02373],[-90.87297,-1.01058],[-90.88478,-1.02046],[-90.87287,-1.00745]]],[[[-90.9273,-0.96332],[-90.92519,-0.96423],[-90.92642,-0.96464],[-90.9273,-0.96332]]],[[[-90.78226,-0.86284],[-90.77228,-0.86639],[-90.78153,-0.86831],[-90.78226,-0.86284]]],[[[-90.81155,-0.85303],[-90.81183,-0.85329],[-90.81214,-0.8531],[-90.81155,-0.85303]]],[[[-90.81032,-0.85253],[-90.81053,-0.85255],[-90.81032,-0.85247],[-90.81032,-0.85253]]],[[[-90.81001,-0.85233],[-90.81023,-0.85241],[-90.81007,-0.85221],[-90.81001,-0.85233]]],[[[-89.56845,-0.85498],[-89.56831,-0.85714],[-89.56938,-0.85645],[-89.56845,-0.85498]]],[[[-90.75107,-0.8501],[-90.74966,-0.8482],[-90.7475,-0.84958],[-90.75107,-0.8501]]],[[[-90.80336,-0.84859],[-90.79598,-0.84966],[-90.80278,-0.85152],[-90.80336,-0.84859]]],[[[-90.81256,-0.8467],[-90.80847,-0.84875],[-90.81362,-0.85027],[-90.81256,-0.8467]]],[[[-89.35497,-0.83158],[-89.3554,-0.83217],[-89.35549,-0.83181],[-89.35497,-0.83158]]],[[[-89.35602,-0.8298],[-89.35427,-0.82982],[-89.35537,-0.83109],[-89.35602,-0.8298]]],[[[-89.34979,-0.82736],[-89.34879,-0.82825],[-89.34936,-0.82886],[-89.34979,-0.82736]]],[[[-89.35018,-0.82703],[-89.34968,-0.82687],[-89.34987,-0.82723],[-89.35018,-0.82703]]],[[[-90.03925,-0.80273],[-90.03704,-0.80335],[-90.03625,-0.80425],[-90.03851,-0.80347],[-90.03925,-0.80294],[-90.03925,-0.80273]]],[[[-90.04024,-0.80247],[-90.03985,-0.80239],[-90.03954,-0.80275],[-90.04024,-0.80247]]],[[[-90.08696,-0.79873],[-90.04155,-0.80127],[-90.03056,-0.83786],[-90.088,-0.82872],[-90.08696,-0.79873]]],[[[-90.80549,-0.78716],[-90.80561,-0.78734],[-90.80563,-0.78721],[-90.80549,-0.78716]]],[[[-90.80457,-0.78693],[-90.80491,-0.78721],[-90.80456,-0.78685],[-90.80457,-0.78693]]],[[[-90.79531,-0.77905],[-90.79521,-0.77929],[-90.79538,-0.77923],[-90.79531,-0.77905]]],[[[-90.78423,-0.76908],[-90.78369,-0.76965],[-90.78436,-0.76913],[-90.78423,-0.76908]]],[[[-90.78437,-0.76857],[-90.78456,-0.76861],[-90.78444,-0.76848],[-90.78437,-0.76857]]],[[[-90.41297,-0.76394],[-90.41268,-0.76458],[-90.41338,-0.76557],[-90.41297,-0.76394]]],[[[-90.28043,-0.75841],[-90.27717,-0.75995],[-90.27923,-0.76022],[-90.28043,-0.75841]]],[[[-90.42168,-0.75684],[-90.42199,-0.75645],[-90.42162,-0.75651],[-90.42168,-0.75684]]],[[[-90.42592,-0.75598],[-90.42577,-0.7563],[-90.42613,-0.75672],[-90.42592,-0.75598]]],[[[-90.30864,-0.75552],[-90.30926,-0.75607],[-90.3093,-0.75589],[-90.30864,-0.75552]]],[[[-90.78855,-0.74957],[-90.78847,-0.74977],[-90.78857,-0.74966],[-90.78855,-0.74957]]],[[[-91.35925,-0.73712],[-91.35876,-0.73738],[-91.35897,-0.73769],[-91.35925,-0.73712]]],[[[-91.35873,-0.73652],[-91.35831,-0.73687],[-91.35882,-0.73661],[-91.35873,-0.73652]]],[[[-90.81027,-0.73806],[-90.80997,-0.73768],[-90.80987,-0.73783],[-90.81027,-0.73806]]],[[[-90.80613,-0.73683],[-90.80488,-0.73717],[-90.80576,-0.73713],[-90.80613,-0.73683]]],[[[-90.80505,-0.72402],[-90.80571,-0.7243],[-90.80543,-0.7235],[-90.80505,-0.72402]]],[[[-91.33981,-0.71756],[-91.34017,-0.7177],[-91.33988,-0.71713],[-91.33981,-0.71756]]],[[[-91.34069,-0.71636],[-91.34051,-0.71711],[-91.34085,-0.71652],[-91.34069,-0.71636]]],[[[-91.34002,-0.71694],[-91.3389,-0.7161],[-91.33858,-0.71665],[-91.34002,-0.71694]]],[[[-89.24787,-0.7032],[-89.24704,-0.70316],[-89.24759,-0.70393],[-89.24787,-0.7032]]],[[[-89.25195,-0.70063],[-89.25154,-0.70146],[-89.25243,-0.70135],[-89.25195,-0.70063]]],[[[-91.27386,-0.6921],[-91.27083,-0.6921],[-91.27306,-0.6931],[-91.27386,-0.6921]]],[[[-91.2722,-0.69154],[-91.27242,-0.6919],[-91.27234,-0.69152],[-91.2722,-0.69154]]],[[[-91.2716,-0.69021],[-91.27106,-0.68988],[-91.27102,-0.69033],[-91.2716,-0.69021]]],[[[-90.19347,-0.69217],[-90.19294,-0.69254],[-90.19311,-0.69302],[-90.19347,-0.69217]]],[[[-91.27573,-0.69025],[-91.27522,-0.69049],[-91.27488,-0.69094],[-91.27573,-0.69025]]],[[[-91.27202,-0.68793],[-91.27073,-0.68956],[-91.27178,-0.68907],[-91.27202,-0.68793]]],[[[-91.27124,-0.68716],[-91.26982,-0.68827],[-91.27046,-0.68856],[-91.27124,-0.68716]]],[[[-91.26862,-0.68673],[-91.26939,-0.68815],[-91.26887,-0.68656],[-91.26862,-0.68673]]],[[[-90.19213,-0.68804],[-90.19233,-0.68807],[-90.19226,-0.68795],[-90.19213,-0.68804]]],[[[-89.35033,-0.68657],[-89.30546,-0.68873],[-89.28164,-0.7068],[-89.25964,-0.69262],[-89.24113,-0.72006],[-89.30815,-0.80276],[-89.35889,-0.82666],[-89.40179,-0.91836],[-89.5314,-0.95605],[-89.62779,-0.91859],[-89.61361,-0.88929],[-89.543,-0.84643],[-89.54139,-0.81775],[-89.48401,-0.81738],[-89.4604,-0.75333],[-89.35033,-0.68657]],[[-89.45364,-0.7561],[-89.45474,-0.75699],[-89.45434,-0.75729],[-89.45364,-0.7561]]],[[[-89.33895,-0.68424],[-89.33768,-0.6844],[-89.33939,-0.68484],[-89.33895,-0.68424]]],[[[-91.09045,-0.63742],[-91.09052,-0.63772],[-91.09023,-0.63779],[-91.09069,-0.63779],[-91.09103,-0.63797],[-91.09045,-0.63742]]],[[[-91.07407,-0.61199],[-91.0743,-0.61199],[-91.07411,-0.61185],[-91.07407,-0.61199]]],[[[-90.95593,-0.6119],[-90.95602,-0.61232],[-90.95625,-0.61228],[-90.95593,-0.6119]]],[[[-90.95648,-0.61105],[-90.95652,-0.61198],[-90.95678,-0.61184],[-90.95648,-0.61105]]],[[[-90.54324,-0.6115],[-90.54351,-0.61182],[-90.5436,-0.61167],[-90.54324,-0.6115]]],[[[-91.08131,-0.60523],[-91.08151,-0.60546],[-91.0815,-0.60521],[-91.08131,-0.60523]]],[[[-91.08071,-0.60542],[-91.08104,-0.60534],[-91.08065,-0.60502],[-91.08071,-0.60542]]],[[[-90.53952,-0.6012],[-90.5397,-0.60139],[-90.53961,-0.60113],[-90.53952,-0.6012]]],[[[-91.07911,-0.59969],[-91.07977,-0.60024],[-91.07974,-0.59984],[-91.07911,-0.59969]]],[[[-91.07807,-0.5988],[-91.07868,-0.59899],[-91.07826,-0.5986],[-91.07807,-0.5988]]],[[[-91.08032,-0.59851],[-91.08038,-0.59866],[-91.08042,-0.59851],[-91.08032,-0.59851]]],[[[-91.07786,-0.59838],[-91.07743,-0.59879],[-91.0776,-0.59891],[-91.07786,-0.59838]]],[[[-91.08987,-0.5984],[-91.09109,-0.59859],[-91.09065,-0.59797],[-91.08987,-0.5984]]],[[[-90.65354,-0.59871],[-90.65401,-0.59868],[-90.65371,-0.5985],[-90.65354,-0.59871]]],[[[-91.09027,-0.59767],[-91.09008,-0.59779],[-91.09027,-0.59775],[-91.09027,-0.59767]]],[[[-91.09077,-0.59497],[-91.09125,-0.59545],[-91.09113,-0.59491],[-91.09077,-0.59497]]],[[[-91.09023,-0.59471],[-91.09061,-0.59479],[-91.09029,-0.59454],[-91.09023,-0.59471]]],[[[-90.68382,-0.5915],[-90.68443,-0.59129],[-90.68407,-0.59113],[-90.68382,-0.5915]]],[[[-90.67096,-0.58751],[-90.64453,-0.60723],[-90.65708,-0.63449],[-90.68481,-0.62144],[-90.68805,-0.60063],[-90.67096,-0.58751]]],[[[-90.16558,-0.58393],[-90.15908,-0.58362],[-90.15886,-0.58459],[-90.16558,-0.58393]]],[[[-90.16573,-0.58027],[-90.15967,-0.57998],[-90.15791,-0.57979],[-90.15942,-0.58128],[-90.16573,-0.58027]]],[[[-90.14313,-0.56851],[-90.14336,-0.56903],[-90.14339,-0.56844],[-90.14313,-0.56851]]],[[[-90.14341,-0.56806],[-90.14355,-0.56833],[-90.14352,-0.56794],[-90.14341,-0.56806]]],[[[-90.14346,-0.56734],[-90.14375,-0.5678],[-90.1437,-0.56728],[-90.14346,-0.56734]]],[[[-90.14155,-0.56638],[-90.14246,-0.56679],[-90.14212,-0.5661],[-90.14155,-0.56638]]],[[[-90.53923,-0.56133],[-90.53521,-0.55895],[-90.5348,-0.56185],[-90.53923,-0.56133]]],[[[-90.94936,-0.54599],[-90.94942,-0.54633],[-90.94968,-0.54597],[-90.94936,-0.54599]]],[[[-90.51645,-0.53535],[-90.51797,-0.53556],[-90.51736,-0.53483],[-90.51645,-0.53535]]],[[[-90.51614,-0.53407],[-90.5157,-0.53461],[-90.51628,-0.53422],[-90.51614,-0.53407]]],[[[-90.51868,-0.53264],[-90.51656,-0.53294],[-90.51703,-0.5343],[-90.51868,-0.53264]]],[[[-90.47226,-0.51996],[-90.47245,-0.52003],[-90.47231,-0.51983],[-90.47226,-0.51996]]],[[[-90.47189,-0.51934],[-90.47169,-0.51977],[-90.4721,-0.51987],[-90.47189,-0.51934]]],[[[-90.47258,-0.51874],[-90.47236,-0.51896],[-90.47246,-0.51911],[-90.47258,-0.51874]]],[[[-90.47848,-0.51885],[-90.47361,-0.51729],[-90.47472,-0.51884],[-90.47313,-0.52019],[-90.47848,-0.51885]]],[[[-90.52575,-0.51502],[-90.52493,-0.51517],[-90.52541,-0.51715],[-90.52575,-0.51502]]],[[[-90.52744,-0.5138],[-90.52775,-0.51455],[-90.52873,-0.5135],[-90.52744,-0.5138]]],[[[-90.52907,-0.51357],[-90.52941,-0.51334],[-90.52903,-0.51349],[-90.52907,-0.51357]]],[[[-91.43007,-0.49491],[-91.4302,-0.49493],[-91.43011,-0.49485],[-91.43007,-0.49491]]],[[[-90.34601,-0.49136],[-90.34646,-0.49176],[-90.34656,-0.49147],[-90.34601,-0.49136]]],[[[-90.25039,-0.48238],[-90.23514,-0.52463],[-90.16886,-0.57315],[-90.18418,-0.60815],[-90.17714,-0.6668],[-90.19621,-0.68111],[-90.19927,-0.69835],[-90.22256,-0.69546],[-90.23961,-0.74496],[-90.30745,-0.74156],[-90.31243,-0.76703],[-90.40609,-0.77231],[-90.41559,-0.75902],[-90.42237,-0.75886],[-90.42105,-0.75711],[-90.42102,-0.75467],[-90.44965,-0.74863],[-90.46615,-0.72165],[-90.53565,-0.69576],[-90.55003,-0.62929],[-90.53039,-0.5849],[-90.53568,-0.56602],[-90.51763,-0.55858],[-90.51296,-0.53163],[-90.41416,-0.50388],[-90.36307,-0.5156],[-90.35959,-0.49385],[-90.32701,-0.49537],[-90.33613,-0.50796],[-90.32582,-0.4942],[-90.25039,-0.48238]]],[[[-90.95249,-0.43645],[-90.95254,-0.43659],[-90.95257,-0.43644],[-90.95249,-0.43645]]],[[[-90.95291,-0.43623],[-90.95293,-0.43637],[-90.95299,-0.43619],[-90.95291,-0.43623]]],[[[-90.95416,-0.43613],[-90.95334,-0.43685],[-90.95379,-0.43705],[-90.95416,-0.43613]]],[[[-90.95326,-0.43591],[-90.95338,-0.4353],[-90.95309,-0.43547],[-90.95326,-0.43591]]],[[[-90.95087,-0.43438],[-90.9512,-0.4345],[-90.95094,-0.43408],[-90.95087,-0.43438]]],[[[-90.95092,-0.43398],[-90.95049,-0.43401],[-90.95033,-0.43426],[-90.95092,-0.43398]]],[[[-90.9512,-0.4338],[-90.95129,-0.43405],[-90.95125,-0.43382],[-90.9512,-0.4338]]],[[[-90.94478,-0.43342],[-90.94475,-0.43345],[-90.9448,-0.43343],[-90.94478,-0.43342]]],[[[-90.94445,-0.43327],[-90.94457,-0.43331],[-90.9445,-0.43324],[-90.94445,-0.43327]]],[[[-90.94516,-0.43327],[-90.945,-0.43322],[-90.94495,-0.43334],[-90.94516,-0.43327]]],[[[-90.94433,-0.43416],[-90.94299,-0.43321],[-90.94279,-0.43447],[-90.94433,-0.43416]]],[[[-90.94469,-0.43297],[-90.94475,-0.43305],[-90.94481,-0.43303],[-90.94469,-0.43297]]],[[[-90.94749,-0.43299],[-90.94753,-0.43306],[-90.94754,-0.43295],[-90.94749,-0.43299]]],[[[-90.94384,-0.43287],[-90.94376,-0.43319],[-90.94386,-0.43317],[-90.94384,-0.43287]]],[[[-90.94486,-0.4328],[-90.94496,-0.43282],[-90.94487,-0.43278],[-90.94486,-0.4328]]],[[[-90.94811,-0.43274],[-90.94812,-0.43277],[-90.94818,-0.43275],[-90.94811,-0.43274]]],[[[-90.94419,-0.43275],[-90.94426,-0.43278],[-90.94422,-0.43267],[-90.94419,-0.43275]]],[[[-90.94696,-0.43258],[-90.94704,-0.43259],[-90.94695,-0.43257],[-90.94696,-0.43258]]],[[[-90.94566,-0.43253],[-90.9457,-0.43259],[-90.94572,-0.43258],[-90.94566,-0.43253]]],[[[-90.94866,-0.43255],[-90.94837,-0.43254],[-90.94831,-0.43262],[-90.94866,-0.43255]]],[[[-90.94786,-0.43251],[-90.94783,-0.43254],[-90.94788,-0.43252],[-90.94786,-0.43251]]],[[[-90.94683,-0.43249],[-90.94684,-0.43245],[-90.94675,-0.43245],[-90.94683,-0.43249]]],[[[-90.94858,-0.43235],[-90.94863,-0.43245],[-90.94863,-0.43235],[-90.94858,-0.43235]]],[[[-90.94678,-0.43238],[-90.94667,-0.43236],[-90.94667,-0.43239],[-90.94678,-0.43238]]],[[[-90.94854,-0.4323],[-90.94845,-0.43231],[-90.94852,-0.43234],[-90.94854,-0.4323]]],[[[-90.94879,-0.43227],[-90.94889,-0.43243],[-90.94893,-0.43232],[-90.94879,-0.43227]]],[[[-90.94514,-0.43232],[-90.94521,-0.43243],[-90.94524,-0.43225],[-90.94514,-0.43232]]],[[[-90.94886,-0.43203],[-90.94886,-0.43215],[-90.94891,-0.43204],[-90.94886,-0.43203]]],[[[-90.94804,-0.43192],[-90.94775,-0.43232],[-90.94826,-0.43222],[-90.94804,-0.43192]]],[[[-90.94804,-0.4318],[-90.94822,-0.43176],[-90.94806,-0.43169],[-90.94804,-0.4318]]],[[[-90.94796,-0.43158],[-90.94748,-0.43176],[-90.94743,-0.43187],[-90.94786,-0.4319],[-90.94796,-0.43158]]],[[[-90.94886,-0.43144],[-90.94844,-0.43168],[-90.94888,-0.43181],[-90.94886,-0.43144]]],[[[-90.94683,-0.43095],[-90.94688,-0.43096],[-90.9469,-0.43093],[-90.94683,-0.43095]]],[[[-90.94763,-0.43079],[-90.94761,-0.43085],[-90.94765,-0.4308],[-90.94763,-0.43079]]],[[[-90.94737,-0.43061],[-90.94732,-0.4306],[-90.94732,-0.43062],[-90.94737,-0.43061]]],[[[-90.94809,-0.43002],[-90.94811,-0.43005],[-90.94811,-0.43],[-90.94809,-0.43002]]],[[[-90.94763,-0.42977],[-90.94778,-0.42984],[-90.94774,-0.42974],[-90.94763,-0.42977]]],[[[-90.94715,-0.4295],[-90.94746,-0.42959],[-90.94737,-0.42944],[-90.94715,-0.4295]]],[[[-90.94751,-0.42934],[-90.94744,-0.42932],[-90.94746,-0.42935],[-90.94751,-0.42934]]],[[[-90.94655,-0.42767],[-90.94667,-0.42782],[-90.94661,-0.42765],[-90.94655,-0.42767]]],[[[-90.94597,-0.42763],[-90.94601,-0.42767],[-90.94598,-0.42759],[-90.94597,-0.42763]]],[[[-90.94689,-0.42728],[-90.94671,-0.42749],[-90.94697,-0.42743],[-90.94689,-0.42728]]],[[[-90.94551,-0.42717],[-90.94565,-0.42719],[-90.94561,-0.4271],[-90.94551,-0.42717]]],[[[-90.94769,-0.42678],[-90.9477,-0.42695],[-90.94781,-0.42684],[-90.94769,-0.42678]]],[[[-90.94774,-0.42668],[-90.94782,-0.42673],[-90.94786,-0.42671],[-90.94774,-0.42668]]],[[[-90.94779,-0.42659],[-90.94767,-0.42657],[-90.94767,-0.42659],[-90.94779,-0.42659]]],[[[-90.94722,-0.4264],[-90.94747,-0.42659],[-90.9471,-0.4262],[-90.94722,-0.4264]]],[[[-90.94782,-0.42559],[-90.94788,-0.42566],[-90.94788,-0.42558],[-90.94782,-0.42559]]],[[[-90.94996,-0.42512],[-90.94992,-0.42522],[-90.95,-0.42518],[-90.94996,-0.42512]]],[[[-90.9497,-0.42467],[-90.9497,-0.42506],[-90.94996,-0.42486],[-90.9497,-0.42467]]],[[[-90.95006,-0.42401],[-90.94982,-0.42396],[-90.94971,-0.42404],[-90.95006,-0.42401]]],[[[-90.94803,-0.4238],[-90.9481,-0.42383],[-90.94804,-0.42377],[-90.94803,-0.4238]]],[[[-90.95003,-0.42365],[-90.95004,-0.4237],[-90.95007,-0.42367],[-90.95003,-0.42365]]],[[[-90.94851,-0.42365],[-90.9486,-0.42388],[-90.94857,-0.42362],[-90.94851,-0.42365]]],[[[-90.9481,-0.42325],[-90.94774,-0.42343],[-90.94809,-0.42341],[-90.9481,-0.42325]]],[[[-90.94969,-0.42322],[-90.94974,-0.42332],[-90.94986,-0.42321],[-90.94969,-0.42322]]],[[[-90.94877,-0.42305],[-90.94889,-0.42319],[-90.94887,-0.42305],[-90.94877,-0.42305]]],[[[-90.95129,-0.42234],[-90.9511,-0.42255],[-90.9514,-0.42254],[-90.95129,-0.42234]]],[[[-90.9547,-0.42228],[-90.95497,-0.42267],[-90.95476,-0.42218],[-90.9547,-0.42228]]],[[[-90.95161,-0.42215],[-90.95169,-0.42223],[-90.95169,-0.4221],[-90.95161,-0.42215]]],[[[-90.95135,-0.42212],[-90.9514,-0.42218],[-90.9514,-0.42211],[-90.95135,-0.42212]]],[[[-90.95299,-0.42191],[-90.95299,-0.42204],[-90.95317,-0.42209],[-90.95299,-0.42191]]],[[[-90.35834,-0.42281],[-90.35913,-0.42283],[-90.35891,-0.42249],[-90.35834,-0.42281]]],[[[-90.95255,-0.42171],[-90.95265,-0.42176],[-90.95266,-0.42172],[-90.95255,-0.42171]]],[[[-90.953,-0.42164],[-90.95289,-0.42171],[-90.95307,-0.42176],[-90.953,-0.42164]]],[[[-90.95378,-0.4215],[-90.95384,-0.42159],[-90.95381,-0.42148],[-90.95378,-0.4215]]],[[[-90.95228,-0.42143],[-90.95233,-0.42139],[-90.95228,-0.4214],[-90.95228,-0.42143]]],[[[-90.95261,-0.42146],[-90.95273,-0.42147],[-90.95284,-0.42137],[-90.95261,-0.42146]]],[[[-90.95385,-0.42127],[-90.95381,-0.42133],[-90.95388,-0.42128],[-90.95385,-0.42127]]],[[[-90.37466,-0.42245],[-90.36953,-0.42118],[-90.3709,-0.4257],[-90.37466,-0.42245]]],[[[-90.63186,-0.41931],[-90.62672,-0.41764],[-90.6267,-0.41831],[-90.63186,-0.41931]]],[[[-90.63258,-0.41666],[-90.63079,-0.41659],[-90.63189,-0.418],[-90.63258,-0.41666]]],[[[-90.62778,-0.41334],[-90.62819,-0.41435],[-90.62836,-0.41431],[-90.62778,-0.41334]]],[[[-90.27669,-0.41104],[-90.24771,-0.46467],[-90.29419,-0.48422],[-90.29672,-0.4557],[-90.28115,-0.4418],[-90.29444,-0.41482],[-90.27669,-0.41104]]],[[[-90.27905,-0.40423],[-90.27734,-0.4026],[-90.27711,-0.40774],[-90.27905,-0.40423]]],[[[-90.70465,-0.39761],[-90.69706,-0.41025],[-90.70555,-0.42766],[-90.72055,-0.41415],[-90.70465,-0.39761]]],[[[-90.29018,-0.38949],[-90.27653,-0.39621],[-90.29273,-0.4006],[-90.29018,-0.38949]]],[[[-90.96302,-0.38457],[-90.962,-0.38613],[-90.96168,-0.3883],[-90.96302,-0.38457]]],[[[-90.57762,-0.37502],[-90.5781,-0.37567],[-90.57828,-0.37501],[-90.57762,-0.37502]]],[[[-90.57351,-0.37469],[-90.57232,-0.37484],[-90.57266,-0.37538],[-90.57351,-0.37469]]],[[[-90.58415,-0.36789],[-90.58099,-0.37036],[-90.58577,-0.37172],[-90.58415,-0.36789]]],[[[-90.56931,-0.36749],[-90.5713,-0.36765],[-90.5716,-0.36641],[-90.56931,-0.36749]]],[[[-90.56563,-0.36413],[-90.56756,-0.36417],[-90.5666,-0.36282],[-90.56563,-0.36413]]],[[[-91.38181,-0.35733],[-91.38121,-0.35776],[-91.38182,-0.35762],[-91.38181,-0.35733]]],[[[-90.56433,-0.35778],[-90.56375,-0.35963],[-90.5659,-0.35965],[-90.56433,-0.35778]]],[[[-90.67297,-0.34868],[-90.67161,-0.34989],[-90.67284,-0.35022],[-90.67297,-0.34868]]],[[[-90.56669,-0.34832],[-90.56601,-0.35308],[-90.56845,-0.35054],[-90.56669,-0.34832]]],[[[-90.55768,-0.34806],[-90.55923,-0.34834],[-90.55891,-0.34704],[-90.55768,-0.34806]]],[[[-90.55792,-0.34208],[-90.5606,-0.34368],[-90.56102,-0.34291],[-90.55792,-0.34208]]],[[[-90.55976,-0.28632],[-90.54139,-0.28509],[-90.55946,-0.29003],[-90.55976,-0.28632]]],[[[-91.13251,-0.26352],[-91.13269,-0.26349],[-91.13251,-0.2633],[-91.13251,-0.26352]]],[[[-91.45967,-0.26005],[-91.41305,-0.28595],[-91.38531,-0.33444],[-91.37685,-0.39466],[-91.39513,-0.43336],[-91.38934,-0.43626],[-91.38701,-0.45379],[-91.3887,-0.4573],[-91.40172,-0.47413],[-91.40822,-0.47677],[-91.41779,-0.4877],[-91.42406,-0.48956],[-91.42463,-0.49266],[-91.42774,-0.49324],[-91.42795,-0.49409],[-91.43039,-0.49475],[-91.43054,-0.49547],[-91.49519,-0.50597],[-91.60967,-0.48078],[-91.65096,-0.3959],[-91.65851,-0.30712],[-91.55955,-0.29675],[-91.45967,-0.26005]]],[[[-90.84703,-0.17267],[-90.84294,-0.17371],[-90.84802,-0.17504],[-90.84703,-0.17267]]],[[[-90.81911,-0.15653],[-90.81967,-0.15673],[-90.81934,-0.15635],[-90.81911,-0.15653]]],[[[-90.79048,-0.14604],[-90.74958,-0.15018],[-90.69733,-0.18878],[-90.64687,-0.1959],[-90.5825,-0.23735],[-90.57533,-0.28162],[-90.54637,-0.31751],[-90.56796,-0.32846],[-90.5792,-0.36374],[-90.60502,-0.37497],[-90.67119,-0.34659],[-90.74083,-0.36041],[-90.79097,-0.32627],[-90.83343,-0.32933],[-90.82983,-0.29836],[-90.8705,-0.26885],[-90.87013,-0.24776],[-90.83147,-0.20808],[-90.82904,-0.16264],[-90.79048,-0.14604]]],[[[-90.5081,-0.14519],[-90.51897,-0.13125],[-90.49919,-0.11932],[-90.4992,-0.13425],[-90.5081,-0.14519]]],[[[-91.33459,0.15729],[-91.3347,0.15713],[-91.33484,0.15725],[-91.33459,0.15729]]],[[[-91.35044,0.15886],[-91.34994,0.15883],[-91.34986,0.1586],[-91.35044,0.15886]]],[[[-91.35208,0.15962],[-91.35195,0.15898],[-91.35211,0.15906],[-91.35208,0.15962]]],[[[-91.35624,0.16131],[-91.35678,0.16097],[-91.35687,0.16144],[-91.35624,0.16131]]],[[[-91.36095,0.16174],[-91.36102,0.16141],[-91.36111,0.16168],[-91.36095,0.16174]]],[[[-91.36052,0.16274],[-91.36115,0.16191],[-91.36155,0.16136],[-91.36112,0.16253],[-91.36052,0.16274]]],[[[-91.36053,0.16316],[-91.35794,0.16276],[-91.35938,0.16176],[-91.36053,0.16316]]],[[[-91.34051,0.16453],[-91.32546,0.13747],[-91.31039,0.13262],[-91.28914,0.06132],[-91.19886,-0.02175],[-91.1764,-0.22076],[-91.14944,-0.25042],[-91.13521,-0.26294],[-91.12196,-0.26948],[-91.11507,-0.27679],[-91.09921,-0.30286],[-91.10997,-0.30719],[-90.99801,-0.38096],[-90.96353,-0.42898],[-90.95685,-0.42233],[-90.94943,-0.42607],[-90.94976,-0.4252],[-90.94911,-0.42549],[-90.94886,-0.4245],[-90.948,-0.42408],[-90.94962,-0.43296],[-90.9472,-0.43275],[-90.94673,-0.4325],[-90.94643,-0.43285],[-90.95166,-0.43303],[-90.95473,-0.43468],[-90.95624,-0.4516],[-90.94222,-0.47155],[-90.94984,-0.54599],[-90.95589,-0.56093],[-90.97057,-0.56429],[-90.98085,-0.58034],[-90.95567,-0.57747],[-90.95777,-0.61327],[-90.93462,-0.6282],[-90.89366,-0.60761],[-90.88279,-0.64267],[-90.84131,-0.68472],[-90.85514,-0.70459],[-90.82699,-0.70537],[-90.82858,-0.72701],[-90.80646,-0.72498],[-90.81401,-0.73892],[-90.78808,-0.7403],[-90.78999,-0.74978],[-90.78091,-0.75808],[-90.79609,-0.77367],[-90.79686,-0.78326],[-90.82505,-0.79081],[-90.84967,-0.91526],[-90.88329,-0.91514],[-90.90456,-0.95305],[-90.92936,-0.96408],[-90.99483,-0.95953],[-91.06173,-1.01225],[-91.137,-1.02139],[-91.1771,-1.0512],[-91.3,-1.01717],[-91.42072,-1.01183],[-91.44378,-0.99784],[-91.44778,-0.95698],[-91.48607,-0.94033],[-91.51238,-0.90747],[-91.48822,-0.84709],[-91.43369,-0.78712],[-91.37147,-0.75391],[-91.33067,-0.71829],[-91.32014,-0.69018],[-91.26775,-0.69417],[-91.21775,-0.66633],[-91.17022,-0.6881],[-91.14272,-0.65418],[-91.10955,-0.63562],[-91.09284,-0.64455],[-91.07181,-0.61637],[-91.07572,-0.60551],[-91.08089,-0.603],[-91.07053,-0.59776],[-91.06903,-0.59405],[-91.09621,-0.58844],[-91.22065,-0.47762],[-91.22573,-0.39288],[-91.33518,-0.33378],[-91.3695,-0.26018],[-91.38794,-0.26047],[-91.39665,-0.22343],[-91.38129,-0.2056],[-91.40495,-0.16354],[-91.40493,-0.06431],[-91.41898,-0.03068],[-91.47046,-0.01469],[-91.56137,-0.05391],[-91.59431,-0.01127],[-91.58779,0.00588],[-91.52175,0.03667],[-91.49072,0.09898],[-91.39169,0.12432],[-91.36308,0.16215],[-91.36216,0.15976],[-91.34969,0.15771],[-91.34051,0.16453]]],[[[-91.33952,0.16443],[-91.33994,0.16436],[-91.33951,0.16461],[-91.33952,0.16443]]],[[[-91.33911,0.16461],[-91.33935,0.16422],[-91.33916,0.16469],[-91.33911,0.16461]]],[[[-91.33862,0.16447],[-91.3389,0.16433],[-91.3389,0.16481],[-91.33862,0.16447]]],[[[-90.40509,0.30773],[-90.40524,0.30723],[-90.40563,0.30756],[-90.40509,0.30773]]],[[[-89.95431,0.34638],[-89.93584,0.32359],[-89.94887,0.29963],[-89.94862,0.31845],[-89.96683,0.30657],[-89.97805,0.31737],[-89.95431,0.34638]]],[[[-90.53661,0.36222],[-90.46084,0.38567],[-90.40129,0.32284],[-90.41843,0.29616],[-90.48086,0.27705],[-90.53986,0.31408],[-90.53661,0.36222]]],[[[-90.76993,0.63992],[-90.72966,0.59903],[-90.72184,0.54116],[-90.77995,0.55242],[-90.78928,0.6265],[-90.76993,0.63992]]],[[[-91.82584,1.39087],[-91.81154,1.38104],[-91.8243,1.37461],[-91.82584,1.39087]]],[[[-91.99044,1.67151],[-91.99062,1.67145],[-91.99049,1.67159],[-91.99044,1.67151]]],[[[-91.99043,1.67208],[-91.99086,1.67203],[-91.99051,1.67232],[-91.99043,1.67208]]],[[[-91.99824,1.67237],[-91.99847,1.67232],[-91.9983,1.67246],[-91.99824,1.67237]]],[[[-91.9986,1.67228],[-91.99892,1.67247],[-91.99887,1.67262],[-91.9986,1.67228]]],[[[-92.0079,1.678],[-92.00823,1.6779],[-92.00812,1.67809],[-92.0079,1.678]]],[[[-92.00811,1.68071],[-92.00826,1.68069],[-92.00817,1.68079],[-92.00811,1.68071]]],[[[-92.00761,1.67453],[-91.99931,1.68003],[-91.99858,1.67497],[-92.00761,1.67453]]]]}},{"type":"Feature","properties":{"codigo":"21","nombre":"Sucumbíos","region":"Amazonía"},"geometry":{"type":"Polygon","coordinates":[[[-77.49059,0.66034],[-77.48033,0.6095],[-77.52186,0.53152],[-77.52948,0.40605],[-77.43135,0.43941],[-77.38965,0.38825],[-77.37094,0.40079],[-77.28753,0.36321],[-77.22005,0.36332],[-77.16691,0.38967],[-77.11334,0.37198],[-77.07811,0.28727],[-77.0479,0.29292],[-77.0274,0.27705],[-77.0038,0.29675],[-76.98525,0.26821],[-76.93284,0.27658],[-76.93523,0.26157],[-76.91026,0.24716],[-76.84546,0.23907],[-76.82859,0.26324],[-76.75621,0.24816],[-76.76545,0.26395],[-76.73281,0.28865],[-76.71183,0.26876],[-76.65622,0.27078],[-76.65223,0.25102],[-76.62706,0.26229],[-76.58588,0.21863],[-76.53515,0.25932],[-76.50384,0.23636],[-76.44791,0.23923],[-76.43688,0.25737],[-76.4261,0.23526],[-76.41206,0.24161],[-76.41204,0.37993],[-76.37203,0.39452],[-76.34428,0.38045],[-76.31432,0.43429],[-76.29792,0.42103],[-76.27695,0.43654],[-76.26009,0.4259],[-76.26034,0.40401],[-76.2321,0.40064],[-76.22593,0.37429],[-76.208,0.38611],[-76.17417,0.37215],[-76.16026,0.38944],[-76.13445,0.37377],[-76.11136,0.31443],[-76.06278,0.33654],[-76.04011,0.30694],[-76.00945,0.30013],[-75.98413,0.26115],[-76.00377,0.24839],[-75.96384,0.23831],[-75.95309,0.22101],[-75.94392,0.22922],[-75.95814,0.20726],[-75.89754,0.1614],[-75.90551,0.13733],[-75.88663,0.14126],[-75.87532,0.11819],[-75.85195,0.1313],[-75.80938,0.05214],[-75.64962,0.02936],[-75.63775,0.04702],[-75.62926,0.02814],[-75.58209,0.01512],[-75.57341,-0.02553],[-75.52324,-0.02647],[-75.39593,-0.09771],[-75.35246,-0.09176],[-75.27609,-0.12351],[-75.25853,-0.11344],[-75.28923,-0.15484],[-75.35284,-0.16452],[-75.36446,-0.14659],[-75.36817,-0.16404],[-75.40372,-0.17072],[-75.51596,-0.11498],[-75.56881,-0.13184],[-75.6063,-0.1096],[-75.6102,-0.19302],[-75.54152,-0.17541],[-75.51371,-0.19718],[-75.48227,-0.23692],[-75.46361,-0.31767],[-75.38817,-0.43397],[-75.34906,-0.46362],[-75.32504,-0.4526],[-75.31299,-0.49451],[-75.26652,-0.50574],[-75.26525,-0.53368],[-75.24247,-0.52215],[-75.24466,-0.54658],[-75.22767,-0.5504],[-75.22472,-0.57006],[-75.24023,-0.58071],[-75.22346,-0.62378],[-75.23211,-0.64665],[-75.28697,-0.65458],[-75.2854,-0.61996],[-75.30526,-0.63177],[-75.31914,-0.61393],[-75.34247,-0.62342],[-75.36805,-0.60216],[-75.38469,-0.60921],[-75.40343,-0.56492],[-75.44966,-0.54973],[-75.55788,-0.5485],[-75.57367,-0.49409],[-75.59056,-0.50634],[-75.59769,-0.48494],[-75.64718,-0.46827],[-75.65281,-0.45233],[-75.70089,-0.47284],[-75.74384,-0.42137],[-75.82762,-0.43764],[-75.85591,-0.42356],[-75.86163,-0.40322],[-75.95508,-0.41934],[-75.94701,-0.54866],[-75.93001,-0.56806],[-75.98851,-0.55732],[-76.05101,-0.5131],[-76.09357,-0.43985],[-76.26256,-0.44958],[-76.3872,-0.51992],[-76.4209,-0.48706],[-76.46898,-0.48735],[-76.55685,-0.40994],[-76.63295,-0.42649],[-76.63615,-0.398],[-76.72714,-0.34647],[-76.71991,-0.33554],[-76.76569,-0.28018],[-76.76559,-0.25553],[-76.84704,-0.17931],[-76.905,-0.08428],[-76.93373,-0.08594],[-76.93373,-0.05912],[-76.93443,-0.05888],[-77.06022,-0.11364],[-77.16244,-0.08425],[-77.16244,-0.10218],[-77.20378,-0.09895],[-77.29006,-0.04521],[-77.33635,-0.09643],[-77.3414,-0.12352],[-77.37939,-0.15257],[-77.42874,-0.1309],[-77.45283,-0.13788],[-77.44457,-0.09794],[-77.45783,-0.08379],[-77.43826,-0.06322],[-77.45607,-0.0503],[-77.46076,-0.01893],[-77.50767,-0.0396],[-77.51057,-0.06421],[-77.5361,-0.05558],[-77.58397,-0.10911],[-77.63811,-0.07609],[-77.78231,-0.08311],[-77.79447,-0.01665],[-77.78456,0.01953],[-77.82255,0.03419],[-77.85228,0.02318],[-77.85938,0.06225],[-77.89007,0.08311],[-77.91824,0.08176],[-77.96226,0.11285],[-77.97674,0.10559],[-77.97158,0.14458],[-77.9235,0.18201],[-77.9244,0.19816],[-77.87047,0.20778],[-77.83131,0.26718],[-77.85246,0.30065],[-77.79719,0.36944],[-77.81336,0.40361],[-77.80726,0.42691],[-77.65586,0.60311],[-77.68795,0.61795],[-77.68634,0.64074],[-77.56619,0.6345],[-77.49059,0.66034]]]}},{"type":"Feature","properties":{"codigo":"22","nombre":"Orellana","region":"Amazonía"},"geometry":{"type":"Polygon","coordinates":[[[-77.27817,-0.04599],[-77.20378,-0.09895],[-77.16244,-0.10218],[-77.16244,-0.08425],[-77.06022,-0.11364],[-76.93374,-0.05911],[-76.93373,-0.08594],[-76.905,-0.08428],[-76.84704,-0.17931],[-76.76559,-0.25553],[-76.76569,-0.28018],[-76.71991,-0.33554],[-76.72714,-0.34647],[-76.63615,-0.398],[-76.63295,-0.42649],[-76.55685,-0.40994],[-76.46898,-0.48735],[-76.4209,-0.48706],[-76.3872,-0.51992],[-76.26256,-0.44958],[-76.09357,-0.43985],[-76.05101,-0.5131],[-75.98851,-0.55732],[-75.93001,-0.56806],[-75.94701,-0.54866],[-75.95508,-0.41934],[-75.86163,-0.40322],[-75.85591,-0.42356],[-75.82762,-0.43764],[-75.74384,-0.42137],[-75.70089,-0.47284],[-75.65264,-0.4524],[-75.64718,-0.46827],[-75.59769,-0.48494],[-75.59056,-0.50634],[-75.57367,-0.49409],[-75.55788,-0.5485],[-75.45073,-0.54944],[-75.40343,-0.56492],[-75.38469,-0.60921],[-75.36805,-0.60216],[-75.34247,-0.62342],[-75.31914,-0.61393],[-75.30526,-0.63177],[-75.2854,-0.61996],[-75.28825,-0.65326],[-75.2618,-0.64692],[-75.27405,-0.67082],[-75.24861,-0.6963],[-75.27698,-0.71845],[-75.25413,-0.76494],[-75.26895,-0.78637],[-75.24178,-0.7987],[-75.25153,-0.83699],[-75.22179,-0.86853],[-75.23418,-0.93125],[-75.18715,-0.9728],[-75.2678,-0.97097],[-75.3064,-0.98763],[-75.37215,-0.92341],[-75.3882,-0.92537],[-75.55989,-1.56341],[-75.59538,-1.54111],[-75.58787,-1.51029],[-75.60228,-1.49673],[-75.63392,-1.50034],[-75.63661,-1.48222],[-75.65008,-1.49368],[-75.64951,-1.47584],[-75.66358,-1.48799],[-75.67527,-1.46795],[-75.69965,-1.46469],[-75.69994,-1.44755],[-75.71985,-1.46231],[-75.7393,-1.41734],[-75.75083,-1.42224],[-75.74703,-1.40657],[-75.80114,-1.40297],[-75.82271,-1.38302],[-75.8358,-1.3917],[-75.845,-1.35565],[-75.87971,-1.35649],[-75.87719,-1.33149],[-75.9004,-1.33389],[-75.89376,-1.34891],[-75.91506,-1.36143],[-75.92012,-1.34586],[-75.94912,-1.35785],[-75.97241,-1.32927],[-75.99735,-1.33437],[-76.00192,-1.30944],[-76.03586,-1.31492],[-76.04929,-1.29716],[-76.06298,-1.30701],[-76.06332,-1.27837],[-76.0824,-1.29655],[-76.11348,-1.27251],[-76.15062,-1.282],[-76.1599,-1.3016],[-76.18718,-1.28639],[-76.2378,-1.30093],[-76.24742,-1.28697],[-76.2533,-1.30697],[-76.27165,-1.29582],[-76.28886,-1.3205],[-76.29305,-1.30364],[-76.36545,-1.29458],[-76.35687,-1.28043],[-76.396,-1.25413],[-76.41936,-1.2721],[-76.43699,-1.25709],[-76.451,-1.27164],[-76.45811,-1.24776],[-76.46512,-1.26187],[-76.47087,-1.26384],[-76.49294,-1.21559],[-76.53055,-1.19265],[-76.51354,-1.09535],[-76.53078,-1.05197],[-76.54637,-1.06853],[-76.56346,-1.05954],[-76.60325,-1.07301],[-76.65286,-1.05681],[-76.72054,-1.08225],[-76.72749,-1.10593],[-76.7738,-1.09066],[-76.83003,-1.11202],[-76.83211,-1.15923],[-76.85319,-1.16306],[-76.89678,-1.12713],[-77.06699,-1.08622],[-77.09105,-1.02397],[-77.03216,-0.98982],[-77.06867,-0.97544],[-77.07171,-0.95139],[-77.0228,-0.92096],[-77.13695,-0.9013],[-77.15034,-0.86843],[-77.19626,-0.85461],[-77.20714,-0.80243],[-77.12163,-0.72796],[-77.12098,-0.69532],[-77.16355,-0.70736],[-77.19921,-0.76716],[-77.25253,-0.79216],[-77.27759,-0.83779],[-77.32422,-0.84667],[-77.38437,-0.89169],[-77.45081,-0.89887],[-77.45264,-0.91613],[-77.51553,-0.9508],[-77.59015,-0.92998],[-77.58759,-0.91204],[-77.55204,-0.90236],[-77.53486,-0.87351],[-77.52474,-0.82071],[-77.54241,-0.79109],[-77.49695,-0.70181],[-77.52518,-0.66949],[-77.53252,-0.6249],[-77.58039,-0.60968],[-77.59048,-0.57387],[-77.62869,-0.54348],[-77.55941,-0.49486],[-77.56194,-0.45548],[-77.42865,-0.52205],[-77.39066,-0.49478],[-77.36495,-0.42876],[-77.32684,-0.42398],[-77.33414,-0.37026],[-77.2977,-0.3363],[-77.27629,-0.34087],[-77.25632,-0.30811],[-77.25357,-0.26963],[-77.27471,-0.26164],[-77.26054,-0.23852],[-77.29856,-0.20292],[-77.29696,-0.14544],[-77.27844,-0.13667],[-77.30567,-0.05507],[-77.27817,-0.04599]]]}},{"type":"Feature","properties":{"codigo":"23","nombre":"Sto. Dmngo","region":"Litoral"},"geometry":{"type":"Polygon","coordinates":[[[-79.40799,0.02524],[-79.2378,0.01216],[-79.18359,-0.01447],[-79.09761,-0.02657],[-79.14945,-0.0919],[-79.10201,-0.08301],[-79.02441,-0.11777],[-78.96497,-0.1012],[-78.92878,-0.12115],[-78.88113,-0.11038],[-78.83511,-0.13767],[-78.83236,-0.1885],[-78.78393,-0.21187],[-78.74604,-0.27682],[-78.77317,-0.27917],[-78.77381,-0.2983],[-78.82229,-0.34627],[-78.85655,-0.34939],[-78.86748,-0.33169],[-78.89945,-0.33585],[-78.95284,-0.31436],[-78.93292,-0.36089],[-78.96212,-0.36946],[-78.9733,-0.40859],[-79.01152,-0.41798],[-79.0314,-0.48333],[-79.07015,-0.52361],[-79.13688,-0.54952],[-79.20212,-0.62891],[-79.26355,-0.66176],[-79.29527,-0.6998],[-79.34928,-0.69032],[-79.37014,-0.65551],[-79.34559,-0.63053],[-79.36683,-0.58023],[-79.35049,-0.57219],[-79.34733,-0.54423],[-79.41668,-0.53857],[-79.45749,-0.56436],[-79.48335,-0.54343],[-79.44951,-0.47994],[-79.46425,-0.4726],[-79.45778,-0.45654],[-79.41076,-0.41069],[-79.40973,-0.19136],[-79.42982,-0.17554],[-79.51937,-0.16389],[-79.54841,-0.09943],[-79.61623,-0.03855],[-79.60653,-0.02168],[-79.57934,-0.0183],[-79.44864,-0.03968],[-79.43602,-0.03317],[-79.43244,-0.02761],[-79.43626,-0.03137],[-79.44717,-0.02991],[-79.44736,-0.02039],[-79.46365,-0.00296],[-79.46362,0.0045],[-79.4246,0.00475],[-79.42891,0.02339],[-79.40204,0.01412],[-79.40799,0.02524]]]}},{"type":"Feature","properties":{"codigo":"24","nombre":"Sta. Elena","region":"Litoral"},"geometry":{"type":"Polygon","coordinates":[[[-80.7458,-1.66966],[-80.7237,-1.68665],[-80.64656,-1.6705],[-80.59414,-1.7786],[-80.54896,-1.78079],[-80.57119,-1.8244],[-80.5165,-1.90248],[-80.51913,-1.91998],[-80.47356,-1.92585],[-80.46525,-1.94739],[-80.44042,-1.94314],[-80.41074,-1.98313],[-80.34484,-1.9979],[-80.31272,-2.06377],[-80.3212,-2.07461],[-80.30351,-2.09236],[-80.26851,-2.08359],[-80.24495,-2.11506],[-80.23872,-2.19191],[-80.2004,-2.20952],[-80.23332,-2.2333],[-80.23521,-2.25241],[-80.26372,-2.24419],[-80.26482,-2.26477],[-80.28473,-2.27459],[-80.28419,-2.33689],[-80.32319,-2.35026],[-80.3687,-2.34361],[-80.3827,-2.37999],[-80.44755,-2.37459],[-80.46007,-2.49158],[-80.54296,-2.48887],[-80.56355,-2.50677],[-80.68711,-2.39963],[-80.80176,-2.37848],[-80.8731,-2.32311],[-80.89084,-2.33862],[-80.92493,-2.27191],[-81.01135,-2.18964],[-80.99047,-2.18429],[-80.94077,-2.21942],[-80.90729,-2.21997],[-80.84865,-2.19319],[-80.75115,-2.11014],[-80.73529,-2.02851],[-80.76304,-1.97609],[-80.73315,-1.96063],[-80.72647,-1.92535],[-80.76873,-1.76283],[-80.80254,-1.71157],[-80.7458,-1.66966]]]}}]}